"STATION","DATE","REPORT_TYPE","SOURCE","AWND","BackupDirection","BackupDistance","BackupDistanceUnit","BackupElements","BackupElevation","BackupElevationUnit","BackupEquipment","BackupLatitude","BackupLongitude","BackupName","CDSD","CLDD","DSNW","DailyAverageDewPointTemperature","DailyAverageDryBulbTemperature","DailyAverageRelativeHumidity","DailyAverageSeaLevelPressure","DailyAverageStationPressure","DailyAverageWetBulbTemperature","DailyAverageWindSpeed","DailyCoolingDegreeDays","DailyDepartureFromNormalAverageTemperature","DailyHeatingDegreeDays","DailyMaximumDryBulbTemperature","DailyMinimumDryBulbTemperature","DailyPeakWindDirection","DailyPeakWindSpeed","DailyPrecipitation","DailySnowDepth","DailySnowfall","DailySustainedWindDirection","DailySustainedWindSpeed","DailyWeather","HDSD","HTDD","HeavyFog","HourlyAltimeterSetting","HourlyDewPointTemperature","HourlyDryBulbTemperature","HourlyPrecipitation","HourlyPresentWeatherType","HourlyPressureChange","HourlyPressureTendency","HourlyRelativeHumidity","HourlySeaLevelPressure","HourlySkyConditions","HourlyStationPressure","HourlyVisibility","HourlyWetBulbTemperature","HourlyWindDirection","HourlyWindGustSpeed","HourlyWindSpeed","MonthlyAverageRH","MonthlyDaysWithGT001Precip","MonthlyDaysWithGT010Precip","MonthlyDaysWithGT32Temp","MonthlyDaysWithGT90Temp","MonthlyDaysWithLT0Temp","MonthlyDaysWithLT32Temp","MonthlyDepartureFromNormalAverageTemperature","MonthlyDepartureFromNormalCoolingDegreeDays","MonthlyDepartureFromNormalHeatingDegreeDays","MonthlyDepartureFromNormalMaximumTemperature","MonthlyDepartureFromNormalMinimumTemperature","MonthlyDepartureFromNormalPrecipitation","MonthlyDewpointTemperature","MonthlyGreatestPrecip","MonthlyGreatestPrecipDate","MonthlyGreatestSnowDepth","MonthlyGreatestSnowDepthDate","MonthlyGreatestSnowfall","MonthlyGreatestSnowfallDate","MonthlyMaxSeaLevelPressureValue","MonthlyMaxSeaLevelPressureValueDate","MonthlyMaxSeaLevelPressureValueTime","MonthlyMaximumTemperature","MonthlyMeanTemperature","MonthlyMinSeaLevelPressureValue","MonthlyMinSeaLevelPressureValueDate","MonthlyMinSeaLevelPressureValueTime","MonthlyMinimumTemperature","MonthlySeaLevelPressure","MonthlyStationPressure","MonthlyTotalLiquidPrecipitation","MonthlyTotalSnowfall","MonthlyWetBulb","NormalsCoolingDegreeDay","NormalsHeatingDegreeDay","REM","REPORT_TYPE","SOURCE","ShortDurationEndDate005","ShortDurationEndDate010","ShortDurationEndDate015","ShortDurationEndDate020","ShortDurationEndDate030","ShortDurationEndDate045","ShortDurationEndDate060","ShortDurationEndDate080","ShortDurationEndDate100","ShortDurationEndDate120","ShortDurationEndDate150","ShortDurationEndDate180","ShortDurationPrecipitationValue005","ShortDurationPrecipitationValue010","ShortDurationPrecipitationValue015","ShortDurationPrecipitationValue020","ShortDurationPrecipitationValue030","ShortDurationPrecipitationValue045","ShortDurationPrecipitationValue060","ShortDurationPrecipitationValue080","ShortDurationPrecipitationValue100","ShortDurationPrecipitationValue120","ShortDurationPrecipitationValue150","ShortDurationPrecipitationValue180","Sunrise","Sunset","TStorms","WindEquipmentChangeDate"
"70273026451","2020-05-10T00:53:00","FM-15","7",,"SE","1.7","mi","TEMP, PRECIP, SNOW","131",,"MMTS, SRG, SNOWBOARD, SNOWSTAKE","61.1561","-149.9847","ANCHORAGE FORECAST OFFICE, AK",,,,,,,,,,,,,,,,,,,,,,,,,,,"30.13","32","48","0.00",,,,"54","30.13","CLR:00","29.99","10.00","41","000",,"0",,,,,,,,,,,,,,,,,,,,,,,,,,,,,,,,,,,,,"MET09805/10/20 00:53:02 METAR PANC 100953Z 00000KT 10SM CLR 09/00 A3013 RMK AO2 SLP203 T00890000 $ (KTH)","FM-15","7",,,,,,,,,,,,,,,,,,,,,,,,,,,,"2006-06-01"
"70273026451","2020-05-10T01:53:00","FM-15","7",,"SE","1.7","mi","TEMP, PRECIP, SNOW","131",,"MMTS, SRG, SNOWBOARD, SNOWSTAKE","61.1561","-149.9847","ANCHORAGE FORECAST OFFICE, AK",,,,,,,,,,,,,,,,,,,,,,,,,,,"30.11","31","53","0.00",,,,"43","30.11","CLR:00","29.97","10.00","43","030",,"7",,,,,,,,,,,,,,,,,,,,,,,,,,,,,,,,,,,,,"MET09905/10/20 01:53:02 METAR PANC 101053Z 03006KT 10SM CLR 12/M01 A3011 RMK AO2 SLP198 T01171006 $ (KTH)","FM-15","7",,,,,,,,,,,,,,,,,,,,,,,,,,,,"2006-06-01"
"70273026451","2020-05-10T02:53:00","FM-15","7",,"SE","1.7","mi","TEMP, PRECIP, SNOW","131",,"MMTS, SRG, SNOWBOARD, SNOWSTAKE","61.1561","-149.9847","ANCHORAGE FORECAST OFFICE, AK",,,,,,,,,,,,,,,,,,,,,,,,,,,"30.11","32","45","0.00",,"+0.01","8","61","30.11","CLR:00","29.97","10.00","40","000",,"0",,,,,,,,,,,,,,,,,,,,,,,,,,,,,,,,,,,,,"MET11605/10/20 02:53:02 METAR PANC 101153Z 00000KT 10SM CLR 07/00 A3011 RMK AO2 SLP198 T00720000 10156 20067 58004 $ (KTH)","FM-15","7",,,,,,,,,,,,,,,,,,,,,,,,,,,,"2006-06-01"
"70273026451","2020-05-10T03:00:00","FM-12","4",,"SE","1.7","mi","TEMP, PRECIP, SNOW","131",,"MMTS, SRG, SNOWBOARD, SNOWSTAKE","61.1561","-149.9847","ANCHORAGE FORECAST OFFICE, AK",,,,,,,,,,,,,,,,,,,,,,,,,,,,"32","45",,,"+0.01","8","61","30.11",,"29.94","9.94","40","000",,"0",,,,,,,,,,,,,,,,,,,,,,,,,,,,,,,,,,,,,"SYN07470273 32966 00000 10072 20000 30138 40198 58004 91153 333 20067 555 91012=","FM-12","4",,,,,,,,,,,,,,,,,,,,,,,,,,,,"2006-06-01"
"70273026451","2020-05-10T03:53:00","FM-15","7",,"SE","1.7","mi","TEMP, PRECIP, SNOW","131",,"MMTS, SRG, SNOWBOARD, SNOWSTAKE","61.1561","-149.9847","ANCHORAGE FORECAST OFFICE, AK",,,,,,,,,,,,,,,,,,,,,,,,,,,"30.10","32","45","0.00",,,,"61","30.11","CLR:00","29.96","10.00","40","360",,"3",,,,,,,,,,,,,,,,,,,,,,,,,,,,,,,,,,,,,"MET09805/10/20 03:53:02 METAR PANC 101253Z 36003KT 10SM CLR 07/00 A3010 RMK AO2 SLP195 T00720000 $ (KTH)","FM-15","7",,,,,,,,,,,,,,,,,,,,,,,,,,,,"2006-06-01"
"70273026451","2020-05-10T04:53:00","FM-15","7",,"SE","1.7","mi","TEMP, PRECIP, SNOW","131",,"MMTS, SRG, SNOWBOARD, SNOWSTAKE","61.1561","-149.9847","ANCHORAGE FORECAST OFFICE, AK",,,,,,,,,,,,,,,,,,,,,,,,,,,"30.10","33","44","0.00",,,,"65","30.11","BKN:07 130","29.96","10.00","39","190",,"3",,,,,,,,,,,,,,,,,,,,,,,,,,,,,,,,,,,,,"MET10105/10/20 04:53:02 METAR PANC 101353Z 19003KT 10SM BKN130 07/01 A3010 RMK AO2 SLP195 T00670006 $ (KTH)","FM-15","7",,,,,,,,,,,,,,,,,,,,,,,,,,,,"2006-06-01"
"70273026451","2020-05-10T05:53:00","FM-15","7",,"SE","1.7","mi","TEMP, PRECIP, SNOW","131",,"MMTS, SRG, SNOWBOARD, SNOWSTAKE","61.1561","-149.9847","ANCHORAGE FORECAST OFFICE, AK",,,,,,,,,,,,,,,,,,,,,,,,,,,"30.10","34","46","0.00",,"+0.01","6","63","30.10","BKN:07 130","29.96","10.00","41","010",,"3",,,,,,,,,,,,,,,,,,,,,,,,,,,,,,,,,,,,,"MET10705/10/20 05:53:02 METAR PANC 101453Z 01003KT 10SM BKN130 08/01 A3010 RMK AO2 SLP193 T00780011 56005 $ (KTH)","FM-15","7",,,,,,,,,,,,,,,,,,,,,,,,,,,,"2006-06-01"
"70273026451","2020-05-10T06:53:00","FM-15","7",,"SE","1.7","mi","TEMP, PRECIP, SNOW","131",,"MMTS, SRG, SNOWBOARD, SNOWSTAKE","61.1561","-149.9847","ANCHORAGE FORECAST OFFICE, AK",,,,,,,,,,,,,,,,,,,,,,,,,,,"30.10","36","48","0.00",,,,"63","30.10","SCT:04 75 BKN:07 130 BKN:07 200","29.96","10.00","43","300",,"5",,,,,,,,,,,,,,,,,,,,,,,,,,,,,,,,,,,,,"MET12605/10/20 06:53:02 METAR PANC 101553Z 30004KT 10SM SCT075 BKN130 BKN200 09/02 A3010 RMK AO2 SLP193 ACSL ALQDS T00890022 $ (NLW)","FM-15","7",,,,,,,,,,,,,,,,,,,,,,,,,,,,"2006-06-01"
"70273026451","2020-05-10T07:53:00","FM-15","7",,"SE","1.7","mi","TEMP, PRECIP, SNOW","131",,"MMTS, SRG, SNOWBOARD, SNOWSTAKE","61.1561","-149.9847","ANCHORAGE FORECAST OFFICE, AK",,,,,,,,,,,,,,,,,,,,,,,,,,,"30.11","33","50","0.00",,,,"52","30.11","SCT:04 75 BKN:07 100 BKN:07 160","29.97","10.00","43","350",,"3",,,,,,,,,,,,,,,,,,,,,,,,,,,,,,,,,,,,,"MET12605/10/20 07:53:02 METAR PANC 101653Z 35003KT 10SM SCT075 BKN100 BKN160 10/01 A3011 RMK AO2 SLP196 SH DSNT NW T01000006 $ (NLW)","FM-15","7",,,,,,,,,,,,,,,,,,,,,,,,,,,,"2006-06-01"
"70273026451","2020-05-10T08:53:00","FM-15","7",,"SE","1.7","mi","TEMP, PRECIP, SNOW","131",,"MMTS, SRG, SNOWBOARD, SNOWSTAKE","61.1561","-149.9847","ANCHORAGE FORECAST OFFICE, AK",,,,,,,,,,,,,,,,,,,,,,,,,,,"30.10","35","56","0.00",,"+0.00","8","46","30.10","SCT:04 70 BKN:07 90 BKN:07 140","29.96","10.00","46","360",,"3",,,,,,,,,,,,,,,,,,,,,,,,,,,,,,,,,,,,,"MET14405/10/20 08:53:02 METAR PANC 101753Z 36003KT 10SM SCT070 BKN090 BKN140 13/02 A3010 RMK AO2 SLP192 SH DSNT NW T01330017 10133 20056 58001 $ (NLW)","FM-15","7",,,,,,,,,,,,,,,,,,,,,,,,,,,,"2006-06-01"
"70273026451","2020-05-10T09:00:00","FM-12","4",,"SE","1.7","mi","TEMP, PRECIP, SNOW","131",,"MMTS, SRG, SNOWBOARD, SNOWSTAKE","61.1561","-149.9847","ANCHORAGE FORECAST OFFICE, AK",,,,,,,,,,,,,,,,,,,,,,,,,,,,"35","56",,,"+0.00","8","46","30.10","74","29.93","9.94","46","360",,"3",,,,,,,,,,,,,,,,,,,,,,,,,,,,,,,,,,,,,"SYN08070273 32866 63603 10133 20017 30135 40192 58001 91753 333 10156 20056 555 91018=","FM-12","4",,,,,,,,,,,,,,,,,,,,,,,,,,,,"2006-06-01"
"70273026451","2020-05-10T09:53:00","FM-15","7",,"SE","1.7","mi","TEMP, PRECIP, SNOW","131",,"MMTS, SRG, SNOWBOARD, SNOWSTAKE","61.1561","-149.9847","ANCHORAGE FORECAST OFFICE, AK",,,,,,,,,,,,,,,,,,,,,,,,,,,"30.09","33","62","0.00",,,,"34","30.09","SCT:04 70 BKN:07 90 BKN:07 140","29.95","10.00","48","VRB",,"8",,,,,,,,,,,,,,,,,,,,,,,,,,,,,,,,,,,,,"MET12605/10/20 09:53:02 METAR PANC 101853Z 15007KT 10SM SCT070 BKN090 BKN140 17/01 A3009 RMK AO2 SLP190 SH DSNT NW T01670006 $ (NLW)","FM-15","7",,,,,,,,,,,,,,,,,,,,,,,,,,,,"2006-06-01"
"70273026451","2020-05-10T10:53:00","FM-15","7",,"SE","1.7","mi","TEMP, PRECIP, SNOW","131",,"MMTS, SRG, SNOWBOARD, SNOWSTAKE","61.1561","-149.9847","ANCHORAGE FORECAST OFFICE, AK",,,,,,,,,,,,,,,,,,,,,,,,,,,"30.10","36","57","0.00",,,,"45","30.10","SCT:04 70 BKN:07 100 BKN:07 140","29.96","10.00","47",,,,,,,,,,,,,,,,,,,,,,,,,,,,,,,,,,,,,,,,"MET11005/10/20 10:53:02 METAR PANC 101953Z      KT SCT070 BKN100 BKN140 14/02 A3010 RMK AO2 SLP192 T01390022 $ (NLW)","FM-15","7",,,,,,,,,,,,,,,,,,,,,,,,,,,,"2006-06-01"
"70273026451","2020-05-10T11:53:00","FM-15","7",,"SE","1.7","mi","TEMP, PRECIP, SNOW","131",,"MMTS, SRG, SNOWBOARD, SNOWSTAKE","61.1561","-149.9847","ANCHORAGE FORECAST OFFICE, AK",,,,,,,,,,,,,,,,,,,,,,,,,,,"30.09","35","54","0.00",,"+0.00","6","49","30.09","SCT:04 70 BKN:07 100 BKN:07 140","29.95","10.00","45","290",,"7",,,,,,,,,,,,,,,,,,,,,,,,,,,,,,,,,,,,,"MET12105/10/20 11:53:02 METAR PANC 102053Z 29006KT 10SM SCT070 BKN100 BKN140 12/02 A3009 RMK AO2 SLP191 T01220017 56001 $ (NLW)","FM-15","7",,,,,,,,,,,,,,,,,,,,,,,,,,,,"2006-06-01"
"70273026451","2020-05-10T12:53:00","FM-15","7",,"SE","1.7","mi","TEMP, PRECIP, SNOW","131",,"MMTS, SRG, SNOWBOARD, SNOWSTAKE","61.1561","-149.9847","ANCHORAGE FORECAST OFFICE, AK",,,,,,,,,,,,,,,,,,,,,,,,,,,"30.08","33","56","0.00",,,,"42","30.09","SCT:04 80 BKN:07 95 BKN:07 160","29.94","10.00","46","280",,"7",,,,,,,,,,,,,,,,,,,,,,,,,,,,,,,,,,,,,"MET11505/10/20 12:53:02 METAR PANC 102153Z 28006KT 10SM SCT080 BKN095 BKN160 13/01 A3008 RMK AO2 SLP188 T01330006 $ (NLW)","FM-15","7",,,,,,,,,,,,,,,,,,,,,,,,,,,,"2006-06-01"
"70273026451","2020-05-10T13:53:00","FM-15","7",,"SE","1.7","mi","TEMP, PRECIP, SNOW","131",,"MMTS, SRG, SNOWBOARD, SNOWSTAKE","61.1561","-149.9847","ANCHORAGE FORECAST OFFICE, AK",,,,,,,,,,,,,,,,,,,,,,,,,,,"30.08","35","58","0.00",,,,"42","30.08","SCT:04 80 BKN:07 110 BKN:07 160","29.94","10.00","47","270",,"8",,,,,,,,,,,,,,,,,,,,,,,,,,,,,,,,,,,,,"MET12405/10/20 13:53:02 METAR PANC 102253Z 27007KT 10SM SCT080 BKN110 BKN160 14/02 A3008 RMK AO2 SLP185 VIRGA NW T01440017 $ (NLW)","FM-15","7",,,,,,,,,,,,,,,,,,,,,,,,,,,,"2006-06-01"
"70273026451","2020-05-10T14:53:00","FM-15","7",,"SE","1.7","mi","TEMP, PRECIP, SNOW","131",,"MMTS, SRG, SNOWBOARD, SNOWSTAKE","61.1561","-149.9847","ANCHORAGE FORECAST OFFICE, AK",,,,,,,,,,,,,,,,,,,,,,,,,,,"30.07","36","57","0.00",,"+0.02","6","45","30.07","FEW:02 95 BKN:07 150 OVC:08 250","29.93","10.00","47","280",,"7",,,,,,,,,,,,,,,,,,,,,,,,,,,,,,,,,,,,,"MET13205/10/20 14:53:02 METAR PANC 102353Z 28006KT 10SM FEW095 BKN150 OVC250 14/02 A3007 RMK AO2 SLP184 T01390022 10172 20117 56006 $ (EZ)","FM-15","7",,,,,,,,,,,,,,,,,,,,,,,,,,,,"2006-06-01"
"70273026451","2020-05-10T15:00:00","FM-12","4",,"SE","1.7","mi","TEMP, PRECIP, SNOW","131",,"MMTS, SRG, SNOWBOARD, SNOWSTAKE","61.1561","-149.9847","ANCHORAGE FORECAST OFFICE, AK",,,,,,,,,,,,,,,,,,,,,,,,,,,,"36","57",,,"+0.02","6","45","30.07",,"29.90","9.94","47","280",,"7",,,,,,,,,,,,,,,,,,,,,,,,,,,,,,,,,,,,,"SYN08070273 32966 82806 10139 20022 30125 40184 56006 92353 333 10172 20067 555 91100=","FM-12","4",,,,,,,,,,,,,,,,,,,,,,,,,,,,"2006-06-01"
"70273026451","2020-05-10T15:53:00","FM-15","7",,"SE","1.7","mi","TEMP, PRECIP, SNOW","131",,"MMTS, SRG, SNOWBOARD, SNOWSTAKE","61.1561","-149.9847","ANCHORAGE FORECAST OFFICE, AK",,,,,,,,,,,,,,,,,,,,,,,,,,,"30.06","39","54","0.00",,,,"57","30.06","FEW:02 95 BKN:07 150 OVC:08 250","29.92","10.00","47","330",,"8",,,,,,,,,,,,,,,,,,,,,,,,,,,,,,,,,,,,,"MET10905/10/20 15:53:01 METAR PANC 110053Z 33007KT 10SM FEW095 BKN150 OVC250 12/04 A3006 RMK AO2 SLP179 T01220039 $","FM-15","7",,,,,,,,,,,,,,,,,,,,,,,,,,,,"2006-06-01"
"70273026451","2020-05-10T16:53:00","FM-15","7",,"SE","1.7","mi","TEMP, PRECIP, SNOW","131",,"MMTS, SRG, SNOWBOARD, SNOWSTAKE","61.1561","-149.9847","ANCHORAGE FORECAST OFFICE, AK",,,,,,,,,,,,,,,,,,,,,,,,,,,"30.05","38","50","0.00",,,,"63","30.05","FEW:02 95 BKN:07 120 OVC:08 250","29.91","10.00","44","320",,"8",,,,,,,,,,,,,,,,,,,,,,,,,,,,,,,,,,,,,"MET10905/10/20 16:53:01 METAR PANC 110153Z 32007KT 10SM FEW095 BKN120 OVC250 10/03 A3005 RMK AO2 SLP176 T01000033 $","FM-15","7",,,,,,,,,,,,,,,,,,,,,,,,,,,,"2006-06-01"
"70273026451","2020-05-10T17:53:00","FM-15","7",,"SE","1.7","mi","TEMP, PRECIP, SNOW","131",,"MMTS, SRG, SNOWBOARD, SNOWSTAKE","61.1561","-149.9847","ANCHORAGE FORECAST OFFICE, AK",,,,,,,,,,,,,,,,,,,,,,,,,,,"30.04","38","47","0.00",,"+0.04","6","71","30.04","SCT:04 95 BKN:07 120 OVC:08 250","29.90","10.00","43","320",,"8",,,,,,,,,,,,,,,,,,,,,,,,,,,,,,,,,,,,,"MET11505/10/20 17:53:01 METAR PANC 110253Z 32007KT 10SM SCT095 BKN120 OVC250 08/03 A3004 RMK AO2 SLP172 T00830033 56012 $","FM-15","7",,,,,,,,,,,,,,,,,,,,,,,,,,,,"2006-06-01"
"70273026451","2020-05-10T18:53:00","FM-15","7",,"SE","1.7","mi","TEMP, PRECIP, SNOW","131",,"MMTS, SRG, SNOWBOARD, SNOWSTAKE","61.1561","-149.9847","ANCHORAGE FORECAST OFFICE, AK",,,,,,,,,,,,,,,,,,,,,,,,,,,"30.03","36","51","0.00",,,,"56","30.03","SCT:04 95 BKN:07 120 OVC:08 250","29.89","10.00","44","240",,"7",,,,,,,,,,,,,,,,,,,,,,,,,,,,,,,,,,,,,"MET10905/10/20 18:53:02 METAR PANC 110353Z 24006KT 10SM SCT095 BKN120 OVC250 11/02 A3003 RMK AO2 SLP168 T01060022 $","FM-15","7",,,,,,,,,,,,,,,,,,,,,,,,,,,,"2006-06-01"
"70273026451","2020-05-10T19:53:00","FM-15","7",,"SE","1.7","mi","TEMP, PRECIP, SNOW","131",,"MMTS, SRG, SNOWBOARD, SNOWSTAKE","61.1561","-149.9847","ANCHORAGE FORECAST OFFICE, AK",,,,,,,,,,,,,,,,,,,,,,,,,,,"30.01","36","50","0.00",,,,"59","30.01","SCT:04 95 BKN:07 110 OVC:08 250","29.87","10.00","44","270",,"8",,,,,,,,,,,,,,,,,,,,,,,,,,,,,,,,,,,,,"MET10905/10/20 19:53:02 METAR PANC 110453Z 27007KT 10SM SCT095 BKN110 OVC250 10/02 A3001 RMK AO2 SLP164 T01000022 $","FM-15","7",,,,,,,,,,,,,,,,,,,,,,,,,,,,"2006-06-01"
"70273026451","2020-05-10T20:53:00","FM-15","7",,"SE","1.7","mi","TEMP, PRECIP, SNOW","131",,"MMTS, SRG, SNOWBOARD, SNOWSTAKE","61.1561","-149.9847","ANCHORAGE FORECAST OFFICE, AK",,,,,,,,,,,,,,,,,,,,,,,,,,,"30.00","36","49","0.00",,"+0.04","8","61","30.00","SCT:04 95 BKN:07 120 OVC:08 250","29.86","10.00","43","270",,"3",,,,,,,,,,,,,,,,,,,,,,,,,,,,,,,,,,,,,"MET12705/10/20 20:53:02 METAR PANC 110553Z 27003KT 10SM SCT095 BKN120 OVC250 09/02 A3000 RMK AO2 SLP159 T00940022 10144 20083 58013 $","FM-15","7",,,,,,,,,,,,,,,,,,,,,,,,,,,,"2006-06-01"
"70273026451","2020-05-10T21:00:00","FM-12","4",,"SE","1.7","mi","TEMP, PRECIP, SNOW","131",,"MMTS, SRG, SNOWBOARD, SNOWSTAKE","61.1561","-149.9847","ANCHORAGE FORECAST OFFICE, AK",,,,,,,,,,,,,,,,,,,,,,,,,,,,"36","49",,,"+0.04","8","61","30.00",,"29.83","9.94","43","270",,"3",,,,,,,,,,,,,,,,,,,,,,,,,,,,,,,,,,,,,"SYN08070273 32966 82703 10094 20022 30101 40159 58013 90553 333 10156 20067 555 91106=","FM-12","4",,,,,,,,,,,,,,,,,,,,,,,,,,,,"2006-06-01"
"70273026451","2020-05-10T21:53:00","FM-15","7",,"SE","1.7","mi","TEMP, PRECIP, SNOW","131",,"MMTS, SRG, SNOWBOARD, SNOWSTAKE","61.1561","-149.9847","ANCHORAGE FORECAST OFFICE, AK",,,,,,,,,,,,,,,,,,,,,,,,,,,"29.99","37","46","0.00",,,,"71","29.99","FEW:02 95 BKN:07 120 OVC:08 170","29.85","10.00","42","240",,"5",,,,,,,,,,,,,,,,,,,,,,,,,,,,,,,,,,,,,"MET10905/10/20 21:53:02 METAR PANC 110653Z 24004KT 10SM FEW095 BKN120 OVC170 08/03 A2999 RMK AO2 SLP155 T00780028 $","FM-15","7",,,,,,,,,,,,,,,,,,,,,,,,,,,,"2006-06-01"
"70273026451","2020-05-10T22:53:00","FM-15","7",,"SE","1.7","mi","TEMP, PRECIP, SNOW","131",,"MMTS, SRG, SNOWBOARD, SNOWSTAKE","61.1561","-149.9847","ANCHORAGE FORECAST OFFICE, AK",,,,,,,,,,,,,,,,,,,,,,,,,,,"29.98","37","46","0.00",,,,"71","29.98","FEW:02 95 BKN:07 120 OVC:08 200","29.84","10.00","42","000",,"0",,,,,,,,,,,,,,,,,,,,,,,,,,,,,,,,,,,,,"MET10905/10/20 22:53:02 METAR PANC 110753Z 00000KT 10SM FEW095 BKN120 OVC200 08/03 A2998 RMK AO2 SLP152 T00780028 $","FM-15","7",,,,,,,,,,,,,,,,,,,,,,,,,,,,"2006-06-01"
"70273026451","2020-05-10T23:53:00","FM-15","7",,"SE","1.7","mi","TEMP, PRECIP, SNOW","131",,"MMTS, SRG, SNOWBOARD, SNOWSTAKE","61.1561","-149.9847","ANCHORAGE FORECAST OFFICE, AK",,,,,,,,,,,,,,,,,,,,,,,,,,,"29.96","36","45","0.00",,"+0.03","8","71","29.97","SCT:04 120 BKN:07 170","29.82","10.00","41","170",,"5",,,,,,,,,,,,,,,,,,,,,,,,,,,,,,,,,,,,,"MET11805/10/20 23:53:02 METAR PANC 110853Z 17004KT 10SM SCT120 BKN170 07/02 A2996 RMK AO2 SLP148 T00720022 401720056 58011 $","FM-15","7",,,,,,,,,,,,,,,,,,,,,,,,,,,,"2006-06-01"
"70273026451","2020-05-10T23:59:00","SOD  ","6",,"SE","1.7","mi","TEMP, PRECIP, SNOW","131",,"MMTS, SRG, SNOWBOARD, SNOWSTAKE","61.1561","-149.9847","ANCHORAGE FORECAST OFFICE, AK",,,,"35","53","56","30.07","29.92","44","5.1","0","6.9","12","63","42","260","14","0.00","0","0.0","250","12",,,,,,,,,,,,,,,,,,,,,,,,,,,,,,,,,,,,,,,,,,,,,,,,,,,,,,,,,"SOD73024 HR PRECIPITATION (IN):0.00  24 HR MAX TEMP (F):63 24 HR MAX TEMP TIME (LST):1001 24 HR MIN TEMP (F):42 24 HR MIN TEMP TIME (LST):0401 AVERAGE STATION PRESSURE:29.920 MINIMUM SEA LEVEL PRESSURE:29.97 TIME OF OCCURRENCE:2359 PEAK WIND SPEED (MPH):14  PEAK WIND DIR (DEG):260 PEAK WIND TIME (LST):1356  FASTEST 2MIN SPEED (MPH):12 FASTEST 2MIN DIR (DEG):250 FASTEST 2MIN TIME (LST):1357 AVERAGE WIND SPEED (MPH):5.1  24 HR AVG TEMP (F):53 HEATING DEGREE DAYS:12  COOLING DEGREE DAYS:0   LATEST DAY MAX TEMP (0700-1900 LST):63  LATEST NIGHT MIN TEMP(1900-0800 LST):42 HOURLY INCREMENTAL PRECIPITATION VALUES (IN):.00 0.00 0.00 0.00 0.00 0.00 0.00 0.00 0.00 0.00 0.00 0.00 0.00 0.00 0.00 0.00 0.00 0.00 0.00 0.00 0.00 0.00 0.00 0.00","SOD  ","6",,,,,,,,,,,,,,,,,,,,,,,,,"0424","2131",,"2006-06-01"
"70273026451","2020-05-11T00:53:00","FM-15","7",,"SE","1.7","mi","TEMP, PRECIP, SNOW","131",,"MMTS, SRG, SNOWBOARD, SNOWSTAKE","61.1561","-149.9847","ANCHORAGE FORECAST OFFICE, AK",,,,,,,,,,,,,,,,,,,,,,,,,,,"29.95","36","45","0.00",,,,"71","29.95","SCT:04 120 BKN:07 220","29.81","10.00","41","180",,"6",,,,,,,,,,,,,,,,,,,,,,,,,,,,,,,,,,,,,"MET10805/11/20 00:53:02 METAR PANC 110953Z 18005KT 10SM SCT120 BKN220 07/02 A2995 RMK AO2 SLP143 T00720022 $ (PEV)","FM-15","7",,,,,,,,,,,,,,,,,,,,,,,,,,,,"2006-06-01"
"70273026451","2020-05-11T01:53:00","FM-15","7",,"SE","1.7","mi","TEMP, PRECIP, SNOW","131",,"MMTS, SRG, SNOWBOARD, SNOWSTAKE","61.1561","-149.9847","ANCHORAGE FORECAST OFFICE, AK",,,,,,,,,,,,,,,,,,,,,,,,,,,"29.93","37","46","0.00",,,,"71","29.93","SCT:04 120 BKN:07 180","29.79","10.00","42","000",,"0",,,,,,,,,,,,,,,,,,,,,,,,,,,,,,,,,,,,,"MET10805/11/20 01:53:02 METAR PANC 111053Z 00000KT 10SM SCT120 BKN180 08/03 A2993 RMK AO2 SLP136 T00780028 $ (PEV)","FM-15","7",,,,,,,,,,,,,,,,,,,,,,,,,,,,"2006-06-01"
"70273026451","2020-05-11T02:53:00","FM-15","7",,"SE","1.7","mi","TEMP, PRECIP, SNOW","131",,"MMTS, SRG, SNOWBOARD, SNOWSTAKE","61.1561","-149.9847","ANCHORAGE FORECAST OFFICE, AK",,,,,,,,,,,,,,,,,,,,,,,,,,,"29.92","36","43","0.00",,"+0.04","6","76","29.92","BKN:07 210","29.78","10.00","40","120",,"3",,,,,,,,,,,,,,,,,,,,,,,,,,,,,,,,,,,,,"MET11905/11/20 02:53:02 METAR PANC 111153Z 12003KT 10SM BKN210 06/02 A2992 RMK AO2 SLP133 T00610022 10094 20056 56015 $ (PEV)","FM-15","7",,,,,,,,,,,,,,,,,,,,,,,,,,,,"2006-06-01"
"70273026451","2020-05-11T03:00:00","FM-12","4",,"SE","1.7","mi","TEMP, PRECIP, SNOW","131",,"MMTS, SRG, SNOWBOARD, SNOWSTAKE","61.1561","-149.9847","ANCHORAGE FORECAST OFFICE, AK",,,,,,,,,,,,,,,,,,,,,,,,,,,,"36","43",,,"+0.04","6","76","29.92",,"29.75","9.94","40","120",,"3",,,,,,,,,,,,,,,,,,,,,,,,,,,,,,,,,,,,,"SYN07470273 32966 61203 10061 20022 30074 40133 56015 91153 333 20056 555 91112=","FM-12","4",,,,,,,,,,,,,,,,,,,,,,,,,,,,"2006-06-01"
"70273026451","2020-05-11T03:53:00","FM-15","7",,"SE","1.7","mi","TEMP, PRECIP, SNOW","131",,"MMTS, SRG, SNOWBOARD, SNOWSTAKE","61.1561","-149.9847","ANCHORAGE FORECAST OFFICE, AK",,,,,,,,,,,,,,,,,,,,,,,,,,,"29.90","35","40","0.00",,,,"83","29.90","FEW:02 50 SCT:04 95 BKN:07 220","29.76","10.00","38","000",,"0",,,,,,,,,,,,,,,,,,,,,,,,,,,,,,,,,,,,,"MET11505/11/20 03:53:02 METAR PANC 111253Z 00000KT 10SM FEW050 SCT095 BKN220 04/02 A2990 RMK AO2 SLP126 T00440017 $ (PEV)","FM-15","7",,,,,,,,,,,,,,,,,,,,,,,,,,,,"2006-06-01"
"70273026451","2020-05-11T04:53:00","FM-15","7",,"SE","1.7","mi","TEMP, PRECIP, SNOW","131",,"MMTS, SRG, SNOWBOARD, SNOWSTAKE","61.1561","-149.9847","ANCHORAGE FORECAST OFFICE, AK",,,,,,,,,,,,,,,,,,,,,,,,,,,"29.89","36","43","0.00",,,,"76","29.89","FEW:02 50 SCT:04 120 BKN:07 230","29.75","10.00","40","170",,"3",,,,,,,,,,,,,,,,,,,,,,,,,,,,,,,,,,,,,"MET11505/11/20 04:53:02 METAR PANC 111353Z 17003KT 10SM FEW050 SCT120 BKN230 06/02 A2989 RMK AO2 SLP122 T00610022 $ (PEV)","FM-15","7",,,,,,,,,,,,,,,,,,,,,,,,,,,,"2006-06-01"
"70273026451","2020-05-11T05:53:00","FM-15","7",,"SE","1.7","mi","TEMP, PRECIP, SNOW","131",,"MMTS, SRG, SNOWBOARD, SNOWSTAKE","61.1561","-149.9847","ANCHORAGE FORECAST OFFICE, AK",,,,,,,,,,,,,,,,,,,,,,,,,,,"29.88","37","45","0.00",,"+0.04","6","74","29.88","SCT:04 95 BKN:07 120 BKN:07 220","29.74","10.00","41","170",,"5",,,,,,,,,,,,,,,,,,,,,,,,,,,,,,,,,,,,,"MET13105/11/20 05:53:02 METAR PANC 111453Z 17004KT 10SM SCT095 BKN120 BKN220 07/03 A2988 RMK AO2 SLP117 ACSL N-NE T00720028 56015 $ (PEV)","FM-15","7",,,,,,,,,,,,,,,,,,,,,,,,,,,,"2006-06-01"
"70273026451","2020-05-11T06:53:00","FM-15","7",,"SE","1.7","mi","TEMP, PRECIP, SNOW","131",,"MMTS, SRG, SNOWBOARD, SNOWSTAKE","61.1561","-149.9847","ANCHORAGE FORECAST OFFICE, AK",,,,,,,,,,,,,,,,,,,,,,,,,,,"29.87","38","46","0.00",,,,"73","29.87","BKN:07 95 BKN:07 120 BKN:07 220","29.73","10.00","42","000",,"0",,,,,,,,,,,,,,,,,,,,,,,,,,,,,,,,,,,,,"MET12505/11/20 06:53:02 METAR PANC 111553Z 00000KT 10SM BKN095 BKN120 BKN220 08/03 A2987 RMK AO2 SLP115 ACSL N-NE T00780033 $ (SCF)","FM-15","7",,,,,,,,,,,,,,,,,,,,,,,,,,,,"2006-06-01"
"70273026451","2020-05-11T07:53:00","FM-15","7",,"SE","1.7","mi","TEMP, PRECIP, SNOW","131",,"MMTS, SRG, SNOWBOARD, SNOWSTAKE","61.1561","-149.9847","ANCHORAGE FORECAST OFFICE, AK",,,,,,,,,,,,,,,,,,,,,,,,,,,"29.86","38","47","0.00",,,,"71","29.86","SCT:04 95 BKN:07 120 BKN:07 220","29.72","10.00","43","000",,"0",,,,,,,,,,,,,,,,,,,,,,,,,,,,,,,,,,,,,"MET12305/11/20 07:53:02 METAR PANC 111653Z 00000KT 10SM SCT095 BKN120 BKN220 08/03 A2986 RMK AO2 SLP113 ACSL NE T00830033 $ (SCF)","FM-15","7",,,,,,,,,,,,,,,,,,,,,,,,,,,,"2006-06-01"
"70273026451","2020-05-11T08:53:00","FM-15","7",,"SE","1.7","mi","TEMP, PRECIP, SNOW","131",,"MMTS, SRG, SNOWBOARD, SNOWSTAKE","61.1561","-149.9847","ANCHORAGE FORECAST OFFICE, AK",,,,,,,,,,,,,,,,,,,,,,,,,,,"29.85","39","46","0.00",,"+0.02","8","77","29.85","FEW:02 95 BKN:07 110 BKN:07 200","29.71","10.00","43","340",,"5",,,,,,,,,,,,,,,,,,,,,,,,,,,,,,,,,,,,,"MET13105/11/20 08:53:02 METAR PANC 111753Z 34004KT 10SM FEW095 BKN110 BKN200 08/04 A2985 RMK AO2 SLP109 T00780039 10094 20044 58008 (SCF)","FM-15","7",,,,,,,,,,,,,,,,,,,,,,,,,,,,"2006-06-01"
"70273026451","2020-05-11T09:00:00","FM-12","4",,"SE","1.7","mi","TEMP, PRECIP, SNOW","131",,"MMTS, SRG, SNOWBOARD, SNOWSTAKE","61.1561","-149.9847","ANCHORAGE FORECAST OFFICE, AK",,,,,,,,,,,,,,,,,,,,,,,,,,,,"39","46",,,"+0.02","8","77","29.85",,"29.68","9.94","43","340",,"5",,,,,,,,,,,,,,,,,,,,,,,,,,,,,,,,,,,,,"SYN08070273 32966 63404 10078 20039 30050 40109 58008 91753 333 10094 20044 555 91118=","FM-12","4",,,,,,,,,,,,,,,,,,,,,,,,,,,,"2006-06-01"
"70273026451","2020-05-11T09:53:00","FM-15","7",,"SE","1.7","mi","TEMP, PRECIP, SNOW","131",,"MMTS, SRG, SNOWBOARD, SNOWSTAKE","61.1561","-149.9847","ANCHORAGE FORECAST OFFICE, AK",,,,,,,,,,,,,,,,,,,,,,,,,,,"29.85","38","45","0.00",,,,"77","29.85","BKN:07 100 OVC:08 200","29.71","10.00","42","320",,"7",,,,,,,,,,,,,,,,,,,,,,,,,,,,,,,,,,,,,"MET10605/11/20 09:53:02 METAR PANC 111853Z 32006KT 10SM BKN100 OVC200 07/03 A2985 RMK AO2 SLP110 T00720033 (SCF)","FM-15","7",,,,,,,,,,,,,,,,,,,,,,,,,,,,"2006-06-01"
"70273026451","2020-05-11T10:53:00","FM-15","7",,"SE","1.7","mi","TEMP, PRECIP, SNOW","131",,"MMTS, SRG, SNOWBOARD, SNOWSTAKE","61.1561","-149.9847","ANCHORAGE FORECAST OFFICE, AK",,,,,,,,,,,,,,,,,,,,,,,,,,,"29.85","40","53","0.00",,,,"61","29.85","BKN:07 80 OVC:08 200","29.71","10.00","47","VRB","21","11",,,,,,,,,,,,,,,,,,,,,,,,,,,,,,,,,,,,,"MET10905/11/20 10:53:02 METAR PANC 111953Z 13010G18KT 10SM BKN080 OVC200 12/04 A2985 RMK AO2 SLP110 T01170044 (SCF)","FM-15","7",,,,,,,,,,,,,,,,,,,,,,,,,,,,"2006-06-01"
"70273026451","2020-05-11T11:20:00","FM-16","7",,"SE","1.7","mi","TEMP, PRECIP, SNOW","131",,"MMTS, SRG, SNOWBOARD, SNOWSTAKE","61.1561","-149.9847","ANCHORAGE FORECAST OFFICE, AK",,,,,,,,,,,,,,,,,,,,,,,,,,,"29.86","41","51",,,,,"69",,"BKN:07 75 OVC:08 200","29.72","10.00","46","130","28","21",,,,,,,,,,,,,,,,,,,,,,,,,,,,,,,,,,,,,"MET13105/11/20 11:20:02 SPECI PANC 112020Z 13018G24KT 10SM BKN075 OVC200 11/05 A2986 RMK AO2 PK WND 14027/2003 WSHFT 2000 T01060050 (SCF)","FM-16","7",,,,,,,,,,,,,,,,,,,,,,,,,,,,"2006-06-01"
"70273026451","2020-05-11T11:53:00","FM-15","7",,"SE","1.7","mi","TEMP, PRECIP, SNOW","131",,"MMTS, SRG, SNOWBOARD, SNOWSTAKE","61.1561","-149.9847","ANCHORAGE FORECAST OFFICE, AK",,,,,,,,,,,,,,,,,,,,,,,,,,,"29.87","41","51","0.00",,"-0.02","3","69","29.87","BKN:07 75 OVC:08 200","29.73","10.00","46","120","26","17",,,,,,,,,,,,,,,,,,,,,,,,,,,,,,,,,,,,,"MET14405/11/20 11:53:02 METAR PANC 112053Z 12015G23KT 10SM BKN075 OVC200 11/05 A2987 RMK AO2 PK WND 14027/2003 WSHFT 2000 SLP116 T01060050 53007 (SCF)","FM-15","7",,,,,,,,,,,,,,,,,,,,,,,,,,,,"2006-06-01"
"70273026451","2020-05-11T12:53:00","FM-15","7",,"SE","1.7","mi","TEMP, PRECIP, SNOW","131",,"MMTS, SRG, SNOWBOARD, SNOWSTAKE","61.1561","-149.9847","ANCHORAGE FORECAST OFFICE, AK",,,,,,,,,,,,,,,,,,,,,,,,,,,"29.88","41","52","0.00",,,,"66","29.88","BKN:07 60 OVC:08 75","29.74","10.00","47","190","30","17",,,,,,,,,,,,,,,,,,,,,,,,,,,,,,,,,,,,,"MET12705/11/20 12:53:02 METAR PANC 112153Z 19015G26KT 10SM BKN060 OVC075 11/05 A2988 RMK AO2 PK WND 17026/2150 SLP118 T01110050 (SCF)","FM-15","7",,,,,,,,,,,,,,,,,,,,,,,,,,,,"2006-06-01"
"70273026451","2020-05-11T13:14:00","FM-16","7",,"SE","1.7","mi","TEMP, PRECIP, SNOW","131",,"MMTS, SRG, SNOWBOARD, SNOWSTAKE","61.1561","-149.9847","ANCHORAGE FORECAST OFFICE, AK",,,,,,,,,,,,,,,,,,,,,,,,,,,"29.90","41","50",,,,,"71",,"FEW:02 7 BKN:07 65 OVC:08 80","29.76","10.00","46","250",,"15",,,,,,,,,,,,,,,,,,,,,,,,,,,,,,,,,,,,,"MET11705/11/20 13:14:02 SPECI PANC 112214Z 25013KT 10SM FEW007 BKN065 OVC080 10/05 A2990 RMK AO2 WSHFT 2157 T01000050 (SCF)","FM-16","7",,,,,,,,,,,,,,,,,,,,,,,,,,,,"2006-06-01"
"70273026451","2020-05-11T13:53:00","FM-15","7",,"SE","1.7","mi","TEMP, PRECIP, SNOW","131",,"MMTS, SRG, SNOWBOARD, SNOWSTAKE","61.1561","-149.9847","ANCHORAGE FORECAST OFFICE, AK",,,,,,,,,,,,,,,,,,,,,,,,,,,"29.92","41","48","0.00",,,,"77","29.92","FEW:02 8 BKN:07 65 OVC:08 80","29.78","10.00","45","280",,"14",,,,,,,,,,,,,,,,,,,,,,,,,,,,,,,,,,,,,"MET12405/11/20 13:53:02 METAR PANC 112253Z 28012KT 10SM FEW008 BKN065 OVC080 09/05 A2992 RMK AO2 WSHFT 2157 SLP131 T00890050 (SCF)","FM-15","7",,,,,,,,,,,,,,,,,,,,,,,,,,,,"2006-06-01"
"70273026451","2020-05-11T14:19:00","FM-16","7",,"SE","1.7","mi","TEMP, PRECIP, SNOW","131",,"MMTS, SRG, SNOWBOARD, SNOWSTAKE","61.1561","-149.9847","ANCHORAGE FORECAST OFFICE, AK",,,,,,,,,,,,,,,,,,,,,,,,,,,"29.92","40","47",,,,,"77",,"BKN:07 8 BKN:07 65 OVC:08 80","29.78","10.00","44","250","29","17",,,,,,,,,,,,,,,,,,,,,,,,,,,,,,,,,,,,,"MET10805/11/20 14:19:02 SPECI PANC 112319Z 25015G25KT 10SM BKN008 BKN065 OVC080 08/04 A2992 RMK AO2 T00830044 (EZ)","FM-16","7",,,,,,,,,,,,,,,,,,,,,,,,,,,,"2006-06-01"
"70273026451","2020-05-11T14:47:00","FM-16","7",,"SE","1.7","mi","TEMP, PRECIP, SNOW","131",,"MMTS, SRG, SNOWBOARD, SNOWSTAKE","61.1561","-149.9847","ANCHORAGE FORECAST OFFICE, AK",,,,,,,,,,,,,,,,,,,,,,,,,,,"29.93","41","50",,,,,"71",,"SCT:04 8 BKN:07 12 OVC:08 65","29.79","10.00","46","250",,"17",,,,,,,,,,,,,,,,,,,,,,,,,,,,,,,,,,,,,"MET09505/11/20 14:47:02 SPECI PANC 112347Z 25015KT 10SM SCT008 BKN012 OVC065 10/05 A2993 RMK AO2 (EZ)","FM-16","7",,,,,,,,,,,,,,,,,,,,,,,,,,,,"2006-06-01"
"70273026451","2020-05-11T14:53:00","FM-15","7",,"SE","1.7","mi","TEMP, PRECIP, SNOW","131",,"MMTS, SRG, SNOWBOARD, SNOWSTAKE","61.1561","-149.9847","ANCHORAGE FORECAST OFFICE, AK",,,,,,,,,,,,,,,,,,,,,,,,,,,"29.93","40","50","0.00",,"-0.06","3","68","29.93","SCT:04 8 BKN:07 12 OVC:08 65","29.79","10.00","45","260",,"18",,,,,,,,,,,,,,,,,,,,,,,,,,,,,,,,,,,,,"MET13005/11/20 14:53:02 METAR PANC 112353Z 26016KT 10SM SCT008 BKN012 OVC065 10/04 A2993 RMK AO2 SLP136 T01000044 10139 20067 53020 (EZ)","FM-15","7",,,,,,,,,,,,,,,,,,,,,,,,,,,,"2006-06-01"
"70273026451","2020-05-11T15:00:00","FM-12","4",,"SE","1.7","mi","TEMP, PRECIP, SNOW","131",,"MMTS, SRG, SNOWBOARD, SNOWSTAKE","61.1561","-149.9847","ANCHORAGE FORECAST OFFICE, AK",,,,,,,,,,,,,,,,,,,,,,,,,,,,"40","50",,,"-0.06","3","68","29.93","8","29.76","9.94","45","260",,"18",,,,,,,,,,,,,,,,,,,,,,,,,,,,,,,,,,,,,"SYN08070273 32366 82616 10100 20044 30077 40136 53020 92353 333 10139 20056 555 91200=","FM-12","4",,,,,,,,,,,,,,,,,,,,,,,,,,,,"2006-06-01"
"70273026451","2020-05-11T15:18:00","FM-16","7",,"SE","1.7","mi","TEMP, PRECIP, SNOW","131",,"MMTS, SRG, SNOWBOARD, SNOWSTAKE","61.1561","-149.9847","ANCHORAGE FORECAST OFFICE, AK",,,,,,,,,,,,,,,,,,,,,,,,,,,"29.93","39","48",,,,,"71",,"FEW:02 8 BKN:07 16 OVC:08 25","29.79","10.00","44","260",,"18",,,,,,,,,,,,,,,,,,,,,,,,,,,,,,,,,,,,,"MET10005/11/20 15:18:01 SPECI PANC 120018Z 26016KT 10SM FEW008 BKN016 OVC025 09/04 A2993 RMK AO2 T00890039","FM-16","7",,,,,,,,,,,,,,,,,,,,,,,,,,,,"2006-06-01"
"70273026451","2020-05-11T15:53:00","FM-15","7",,"SE","1.7","mi","TEMP, PRECIP, SNOW","131",,"MMTS, SRG, SNOWBOARD, SNOWSTAKE","61.1561","-149.9847","ANCHORAGE FORECAST OFFICE, AK",,,,,,,,,,,,,,,,,,,,,,,,,,,"29.94","39","46","0.00",,,,"77","29.94","FEW:02 8 SCT:04 16 BKN:07 24","29.80","10.00","43","250","30","17",,,,,,,,,,,,,,,,,,,,,,,,,,,,,,,,,,,,,"MET12805/11/20 15:53:01 METAR PANC 120053Z 25015G26KT 10SM FEW008 SCT016 BKN024 08/04 A2994 RMK AO2 PK WND 23026/0053 SLP140 T00780039","FM-15","7",,,,,,,,,,,,,,,,,,,,,,,,,,,,"2006-06-01"
"70273026451","2020-05-11T16:53:00","FM-15","7",,"SE","1.7","mi","TEMP, PRECIP, SNOW","131",,"MMTS, SRG, SNOWBOARD, SNOWSTAKE","61.1561","-149.9847","ANCHORAGE FORECAST OFFICE, AK",,,,,,,,,,,,,,,,,,,,,,,,,,,"29.95","37","46","0.00",,,,"71","29.95","FEW:02 12 BKN:07 25 BKN:07 55","29.81","10.00","42","240",,"13",,,,,,,,,,,,,,,,,,,,,,,,,,,,,,,,,,,,,"MET11505/11/20 16:53:01 METAR PANC 120153Z 24011KT 10SM FEW012 BKN025 BKN055 08/03 A2995 RMK AO2 SLP143 VIRGA W T00780028","FM-15","7",,,,,,,,,,,,,,,,,,,,,,,,,,,,"2006-06-01"
"70273026451","2020-05-11T17:53:00","FM-15","7",,"SE","1.7","mi","TEMP, PRECIP, SNOW","131",,"MMTS, SRG, SNOWBOARD, SNOWSTAKE","61.1561","-149.9847","ANCHORAGE FORECAST OFFICE, AK",,,,,,,,,,,,,,,,,,,,,,,,,,,"29.96","37","46","0.00",,"-0.03","3","71","29.96","FEW:02 15 BKN:07 28 BKN:07 55","29.82","10.00","42","240",,"7",,,,,,,,,,,,,,,,,,,,,,,,,,,,,,,,,,,,,"MET12405/11/20 17:53:01 METAR PANC 120253Z 24006KT 10SM FEW015 BKN028 BKN055 08/03 A2996 RMK AO2 SLP146 VIRGA SW-W T00780028 53009","FM-15","7",,,,,,,,,,,,,,,,,,,,,,,,,,,,"2006-06-01"
"70273026451","2020-05-11T18:15:00","FM-16","7",,"SE","1.7","mi","TEMP, PRECIP, SNOW","131",,"MMTS, SRG, SNOWBOARD, SNOWSTAKE","61.1561","-149.9847","ANCHORAGE FORECAST OFFICE, AK",,,,,,,,,,,,,,,,,,,,,,,,,,,"29.96","37","46",,,,,"71",,"FEW:02 15 BKN:07 32 BKN:07 55","29.82","10.00","42","260",,"6",,,,,,,,,,,,,,,,,,,,,,,,,,,,,,,,,,,,,"MET11105/11/20 18:15:01 SPECI PANC 120315Z 26005KT 10SM FEW015 BKN032 BKN055 08/03 A2996 RMK AO2 VIRGA SW-W T00780028","FM-16","7",,,,,,,,,,,,,,,,,,,,,,,,,,,,"2006-06-01"
"70273026451","2020-05-11T18:53:00","FM-15","7",,"SE","1.7","mi","TEMP, PRECIP, SNOW","131",,"MMTS, SRG, SNOWBOARD, SNOWSTAKE","61.1561","-149.9847","ANCHORAGE FORECAST OFFICE, AK",,,,,,,,,,,,,,,,,,,,,,,,,,,"29.96","37","46","0.00",,,,"71","29.96","FEW:02 15 BKN:07 35 BKN:07 55","29.82","10.00","42","250",,"6",,,,,,,,,,,,,,,,,,,,,,,,,,,,,,,,,,,,,"MET10705/11/20 18:53:02 METAR PANC 120353Z 25005KT 10SM FEW015 BKN035 BKN055 08/03 A2996 RMK AO2 SLP145 T00780028","FM-15","7",,,,,,,,,,,,,,,,,,,,,,,,,,,,"2006-06-01"
"70273026451","2020-05-11T19:53:00","FM-15","7",,"SE","1.7","mi","TEMP, PRECIP, SNOW","131",,"MMTS, SRG, SNOWBOARD, SNOWSTAKE","61.1561","-149.9847","ANCHORAGE FORECAST OFFICE, AK",,,,,,,,,,,,,,,,,,,,,,,,,,,"29.95","36","45","0.00",,,,"71","29.95","BKN:07 35 BKN:07 55","29.81","10.00","41","240",,"7",,,,,,,,,,,,,,,,,,,,,,,,,,,,,,,,,,,,,"MET10905/11/20 19:53:02 METAR PANC 120453Z 24006KT 10SM BKN035 BKN055 07/02 A2995 RMK AO2 SLP143 VIRGA SW T00720022","FM-15","7",,,,,,,,,,,,,,,,,,,,,,,,,,,,"2006-06-01"
"70273026451","2020-05-11T20:53:00","FM-15","7",,"SE","1.7","mi","TEMP, PRECIP, SNOW","131",,"MMTS, SRG, SNOWBOARD, SNOWSTAKE","61.1561","-149.9847","ANCHORAGE FORECAST OFFICE, AK",,,,,,,,,,,,,,,,,,,,,,,,,,,"29.96","35","45","0.00",,"+0.00","5","68","29.96","BKN:07 35 BKN:07 55","29.82","10.00","41","240",,"6",,,,,,,,,,,,,,,,,,,,,,,,,,,,,,,,,,,,,"MET11805/11/20 20:53:02 METAR PANC 120553Z 24005KT 10SM BKN035 BKN055 07/02 A2996 RMK AO2 SLP145 T00720017 10094 20072 55001","FM-15","7",,,,,,,,,,,,,,,,,,,,,,,,,,,,"2006-06-01"
"70273026451","2020-05-11T21:00:00","FM-12","4",,"SE","1.7","mi","TEMP, PRECIP, SNOW","131",,"MMTS, SRG, SNOWBOARD, SNOWSTAKE","61.1561","-149.9847","ANCHORAGE FORECAST OFFICE, AK",,,,,,,,,,,,,,,,,,,,,,,,,,,,"35","45",,,"+0.00","5","68","29.96","41","29.79","9.94","41","240",,"6",,,,,,,,,,,,,,,,,,,,,,,,,,,,,,,,,,,,,"SYN08070273 32666 62405 10072 20017 30088 40145 55001 90553 333 10094 20056 555 91206=","FM-12","4",,,,,,,,,,,,,,,,,,,,,,,,,,,,"2006-06-01"
"70273026451","2020-05-11T21:53:00","FM-15","7",,"SE","1.7","mi","TEMP, PRECIP, SNOW","131",,"MMTS, SRG, SNOWBOARD, SNOWSTAKE","61.1561","-149.9847","ANCHORAGE FORECAST OFFICE, AK",,,,,,,,,,,,,,,,,,,,,,,,,,,"29.96","34","45","0.00",,,,"66","29.96","BKN:07 40 BKN:07 55","29.82","10.00","40","200",,"5",,,,,,,,,,,,,,,,,,,,,,,,,,,,,,,,,,,,,"MET10005/11/20 21:53:02 METAR PANC 120653Z 20004KT 10SM BKN040 BKN055 07/01 A2996 RMK AO2 SLP146 T00720011","FM-15","7",,,,,,,,,,,,,,,,,,,,,,,,,,,,"2006-06-01"
"70273026451","2020-05-11T22:53:00","FM-15","7",,"SE","1.7","mi","TEMP, PRECIP, SNOW","131",,"MMTS, SRG, SNOWBOARD, SNOWSTAKE","61.1561","-149.9847","ANCHORAGE FORECAST OFFICE, AK",,,,,,,,,,,,,,,,,,,,,,,,,,,"29.95","36","44","0.00",,,,"73","29.95","BKN:07 40 BKN:07 55","29.81","10.00","40","000",,"0",,,,,,,,,,,,,,,,,,,,,,,,,,,,,,,,,,,,,"MET10005/11/20 22:53:02 METAR PANC 120753Z 00000KT 10SM BKN040 BKN055 07/02 A2995 RMK AO2 SLP143 T00670022","FM-15","7",,,,,,,,,,,,,,,,,,,,,,,,,,,,"2006-06-01"
"70273026451","2020-05-11T23:53:00","FM-15","7",,"SE","1.7","mi","TEMP, PRECIP, SNOW","131",,"MMTS, SRG, SNOWBOARD, SNOWSTAKE","61.1561","-149.9847","ANCHORAGE FORECAST OFFICE, AK",,,,,,,,,,,,,,,,,,,,,,,,,,,"29.96","36","45","0.00",,"-0.00","3","71","29.96","BKN:07 43","29.82","10.00","41","150",,"3",,,,,,,,,,,,,,,,,,,,,,,,,,,,,,,,,,,,,"MET10905/11/20 23:53:02 METAR PANC 120853Z 15003KT 10SM BKN043 07/02 A2996 RMK AO2 SLP145 T00720022 401390044 53000","FM-15","7",,,,,,,,,,,,,,,,,,,,,,,,,,,,"2006-06-01"
"70273026451","2020-05-11T23:59:00","SOD  ","6",,"SE","1.7","mi","TEMP, PRECIP, SNOW","131",,"MMTS, SRG, SNOWBOARD, SNOWSTAKE","61.1561","-149.9847","ANCHORAGE FORECAST OFFICE, AK",,,,"37","49","72","29.92","29.77","42","7.1","0","2.6","16","57","40","140","31","0.00","0","0.0","260","21",,,,,,,,,,,,,,,,,,,,,,,,,,,,,,,,,,,,,,,,,,,,,,,,,,,,,,,,,"SOD73024 HR PRECIPITATION (IN):0.00  24 HR MAX TEMP (F):57 24 HR MAX TEMP TIME (LST):1239 24 HR MIN TEMP (F):40 24 HR MIN TEMP TIME (LST):0508 AVERAGE STATION PRESSURE:29.770 MINIMUM SEA LEVEL PRESSURE:29.85 TIME OF OCCURRENCE:1054 PEAK WIND SPEED (MPH):31  PEAK WIND DIR (DEG):140 PEAK WIND TIME (LST):1103  FASTEST 2MIN SPEED (MPH):21 FASTEST 2MIN DIR (DEG):260 FASTEST 2MIN TIME (LST):1412 AVERAGE WIND SPEED (MPH):7.1  24 HR AVG TEMP (F):49 HEATING DEGREE DAYS:16  COOLING DEGREE DAYS:0   LATEST DAY MAX TEMP (0700-1900 LST):57  LATEST NIGHT MIN TEMP(1900-0800 LST):40 HOURLY INCREMENTAL PRECIPITATION VALUES (IN):.00 0.00 0.00 0.00 0.00 0.00 0.00 0.00 0.00 0.00 0.00 0.00 0.00 0.00 0.00 0.00 0.00 0.00 0.00 0.00 0.00 0.00 0.00 0.00","SOD  ","6",,,,,,,,,,,,,,,,,,,,,,,,,"0421","2133",,"2006-06-01"
"70273026451","2020-05-12T00:53:00","FM-15","7",,"SE","1.7","mi","TEMP, PRECIP, SNOW","131",,"MMTS, SRG, SNOWBOARD, SNOWSTAKE","61.1561","-149.9847","ANCHORAGE FORECAST OFFICE, AK",,,,,,,,,,,,,,,,,,,,,,,,,,,"29.96","36","45","0.00",,,,"71","29.96","FEW:02 20 BKN:07 45","29.82","10.00","41","180",,"3",,,,,,,,,,,,,,,,,,,,,,,,,,,,,,,,,,,,,"MET10605/12/20 00:53:02 METAR PANC 120953Z 18003KT 10SM FEW020 BKN045 07/02 A2996 RMK AO2 SLP145 T00720022 (PEV)","FM-15","7",,,,,,,,,,,,,,,,,,,,,,,,,,,,"2006-06-01"
"70273026451","2020-05-12T01:53:00","FM-15","7",,"SE","1.7","mi","TEMP, PRECIP, SNOW","131",,"MMTS, SRG, SNOWBOARD, SNOWSTAKE","61.1561","-149.9847","ANCHORAGE FORECAST OFFICE, AK",,,,,,,,,,,,,,,,,,,,,,,,,,,"29.95","35","45","0.00",,,,"68","29.95","FEW:02 20 BKN:07 45","29.81","10.00","41","180",,"5",,,,,,,,,,,,,,,,,,,,,,,,,,,,,,,,,,,,,"MET10605/12/20 01:53:02 METAR PANC 121053Z 18004KT 10SM FEW020 BKN045 07/02 A2995 RMK AO2 SLP141 T00720017 (PEV)","FM-15","7",,,,,,,,,,,,,,,,,,,,,,,,,,,,"2006-06-01"
"70273026451","2020-05-12T02:53:00","FM-15","7",,"SE","1.7","mi","TEMP, PRECIP, SNOW","131",,"MMTS, SRG, SNOWBOARD, SNOWSTAKE","61.1561","-149.9847","ANCHORAGE FORECAST OFFICE, AK",,,,,,,,,,,,,,,,,,,,,,,,,,,"29.94","35","44","0.00",,"+0.01","8","71","29.94","OVC:08 48","29.80","10.00","40","190",,"3",,,,,,,,,,,,,,,,,,,,,,,,,,,,,,,,,,,,,"MET11705/12/20 02:53:02 METAR PANC 121153Z 19003KT 10SM OVC048 07/02 A2994 RMK AO2 SLP140 T00670017 10072 20067 58005 (PEV)","FM-15","7",,,,,,,,,,,,,,,,,,,,,,,,,,,,"2006-06-01"
"70273026451","2020-05-12T03:00:00","FM-12","4",,"SE","1.7","mi","TEMP, PRECIP, SNOW","131",,"MMTS, SRG, SNOWBOARD, SNOWSTAKE","61.1561","-149.9847","ANCHORAGE FORECAST OFFICE, AK",,,,,,,,,,,,,,,,,,,,,,,,,,,,"35","44",,,"+0.01","8","71","29.94","41","29.77","9.94","40","190",,"3",,,,,,,,,,,,,,,,,,,,,,,,,,,,,,,,,,,,,"SYN07470273 32666 81903 10067 20017 30081 40140 58005 91153 333 20067 555 91212=","FM-12","4",,,,,,,,,,,,,,,,,,,,,,,,,,,,"2006-06-01"
"70273026451","2020-05-12T03:53:00","FM-15","7",,"SE","1.7","mi","TEMP, PRECIP, SNOW","131",,"MMTS, SRG, SNOWBOARD, SNOWSTAKE","61.1561","-149.9847","ANCHORAGE FORECAST OFFICE, AK",,,,,,,,,,,,,,,,,,,,,,,,,,,"29.94","35","44","0.00",,,,"71","29.95","BKN:07 48 BKN:07 65","29.80","10.00","40","200",,"3",,,,,,,,,,,,,,,,,,,,,,,,,,,,,,,,,,,,,"MET10605/12/20 03:53:02 METAR PANC 121253Z 20003KT 10SM BKN048 BKN065 07/02 A2994 RMK AO2 SLP141 T00670017 (PEV)","FM-15","7",,,,,,,,,,,,,,,,,,,,,,,,,,,,"2006-06-01"
"70273026451","2020-05-12T04:53:00","FM-15","7",,"SE","1.7","mi","TEMP, PRECIP, SNOW","131",,"MMTS, SRG, SNOWBOARD, SNOWSTAKE","61.1561","-149.9847","ANCHORAGE FORECAST OFFICE, AK",,,,,,,,,,,,,,,,,,,,,,,,,,,"29.94","36","44","0.00",,,,"73","29.94","BKN:07 47 BKN:07 65","29.80","10.00","40","230",,"6",,,,,,,,,,,,,,,,,,,,,,,,,,,,,,,,,,,,,"MET10605/12/20 04:53:02 METAR PANC 121353Z 23005KT 10SM BKN047 BKN065 07/02 A2994 RMK AO2 SLP140 T00670022 (PEV)","FM-15","7",,,,,,,,,,,,,,,,,,,,,,,,,,,,"2006-06-01"
"70273026451","2020-05-12T05:53:00","FM-15","7",,"SE","1.7","mi","TEMP, PRECIP, SNOW","131",,"MMTS, SRG, SNOWBOARD, SNOWSTAKE","61.1561","-149.9847","ANCHORAGE FORECAST OFFICE, AK",,,,,,,,,,,,,,,,,,,,,,,,,,,"29.94","36","44","0.00",,"+0.00","5","73","29.95","BKN:07 48 BKN:07 65","29.80","10.00","40","250",,"5",,,,,,,,,,,,,,,,,,,,,,,,,,,,,,,,,,,,,"MET11205/12/20 05:53:02 METAR PANC 121453Z 25004KT 10SM BKN048 BKN065 07/02 A2994 RMK AO2 SLP141 T00670022 55000 (PEV)","FM-15","7",,,,,,,,,,,,,,,,,,,,,,,,,,,,"2006-06-01"
"70273026451","2020-05-12T06:53:00","FM-15","7",,"SE","1.7","mi","TEMP, PRECIP, SNOW","131",,"MMTS, SRG, SNOWBOARD, SNOWSTAKE","61.1561","-149.9847","ANCHORAGE FORECAST OFFICE, AK",,,,,,,,,,,,,,,,,,,,,,,,,,,"29.94","37","44","0.00",,,,"76","29.94","BKN:07 48 BKN:07 65","29.80","10.00","41","270",,"6",,,,,,,,,,,,,,,,,,,,,,,,,,,,,,,,,,,,,"MET10605/12/20 06:53:02 METAR PANC 121553Z 27005KT 10SM BKN048 BKN065 07/03 A2994 RMK AO2 SLP139 T00670028 (SCF)","FM-15","7",,,,,,,,,,,,,,,,,,,,,,,,,,,,"2006-06-01"
"70273026451","2020-05-12T07:53:00","FM-15","7",,"SE","1.7","mi","TEMP, PRECIP, SNOW","131",,"MMTS, SRG, SNOWBOARD, SNOWSTAKE","61.1561","-149.9847","ANCHORAGE FORECAST OFFICE, AK",,,,,,,,,,,,,,,,,,,,,,,,,,,"29.93","37","44","0.00",,,,"76","29.93","OVC:08 55","29.79","10.00","41","VRB",,"7",,,,,,,,,,,,,,,,,,,,,,,,,,,,,,,,,,,,,"MET09905/12/20 07:53:02 METAR PANC 121653Z VRB06KT 10SM OVC055 07/03 A2993 RMK AO2 SLP137 T00670028 (SCF)","FM-15","7",,,,,,,,,,,,,,,,,,,,,,,,,,,,"2006-06-01"
"70273026451","2020-05-12T08:53:00","FM-15","7",,"SE","1.7","mi","TEMP, PRECIP, SNOW","131",,"MMTS, SRG, SNOWBOARD, SNOWSTAKE","61.1561","-149.9847","ANCHORAGE FORECAST OFFICE, AK",,,,,,,,,,,,,,,,,,,,,,,,,,,"29.92","37","46","0.00",,"+0.02","7","71","29.93","FEW:02 14 FEW:02 30 OVC:08 60","29.78","10.00","42","VRB",,"5",,,,,,,,,,,,,,,,,,,,,,,,,,,,,,,,,,,,,"MET13105/12/20 08:53:02 METAR PANC 121753Z VRB04KT 10SM FEW014 FEW030 OVC060 08/03 A2992 RMK AO2 SLP134 T00780028 10078 20056 57006 (SCF)","FM-15","7",,,,,,,,,,,,,,,,,,,,,,,,,,,,"2006-06-01"
"70273026451","2020-05-12T09:00:00","FM-12","4",,"SE","1.7","mi","TEMP, PRECIP, SNOW","131",,"MMTS, SRG, SNOWBOARD, SNOWSTAKE","61.1561","-149.9847","ANCHORAGE FORECAST OFFICE, AK",,,,,,,,,,,,,,,,,,,,,,,,,,,,"37","46",,,"+0.02","7","71","29.93","15","29.75","9.94","42",,,"5",,,,,,,,,,,,,,,,,,,,,,,,,,,,,,,,,,,,,"SYN08070273 32466 8//04 10078 20028 30074 40134 57006 91753 333 10078 20056 555 91218=","FM-12","4",,,,,,,,,,,,,,,,,,,,,,,,,,,,"2006-06-01"
"70273026451","2020-05-12T09:53:00","FM-15","7",,"SE","1.7","mi","TEMP, PRECIP, SNOW","131",,"MMTS, SRG, SNOWBOARD, SNOWSTAKE","61.1561","-149.9847","ANCHORAGE FORECAST OFFICE, AK",,,,,,,,,,,,,,,,,,,,,,,,,,,"29.91","38","48","0.00",,,,"68","29.91","FEW:02 30 BKN:07 48","29.77","10.00","43","300",,"7",,,,,,,,,,,,,,,,,,,,,,,,,,,,,,,,,,,,,"MET10605/12/20 09:53:02 METAR PANC 121853Z 30006KT 10SM FEW030 BKN048 09/03 A2991 RMK AO2 SLP130 T00890033 (SCF)","FM-15","7",,,,,,,,,,,,,,,,,,,,,,,,,,,,"2006-06-01"
"70273026451","2020-05-12T10:53:00","FM-15","7",,"SE","1.7","mi","TEMP, PRECIP, SNOW","131",,"MMTS, SRG, SNOWBOARD, SNOWSTAKE","61.1561","-149.9847","ANCHORAGE FORECAST OFFICE, AK",,,,,,,,,,,,,,,,,,,,,,,,,,,"29.91","37","48","0.00",,,,"66","29.91","OVC:08 49","29.77","10.00","43","270",,"8",,,,,,,,,,,,,,,,,,,,,,,,,,,,,,,,,,,,,"MET09905/12/20 10:53:02 METAR PANC 121953Z 27007KT 10SM OVC049 09/03 A2991 RMK AO2 SLP129 T00890028 (SCF)","FM-15","7",,,,,,,,,,,,,,,,,,,,,,,,,,,,"2006-06-01"
"70273026451","2020-05-12T11:53:00","FM-15","7",,"SE","1.7","mi","TEMP, PRECIP, SNOW","131",,"MMTS, SRG, SNOWBOARD, SNOWSTAKE","61.1561","-149.9847","ANCHORAGE FORECAST OFFICE, AK",,,,,,,,,,,,,,,,,,,,,,,,,,,"29.90","38","48","0.00",,"+0.03","8","68","29.90","FEW:02 35 SCT:04 55","29.76","10.00","43","VRB",,"8",,,,,,,,,,,,,,,,,,,,,,,,,,,,,,,,,,,,,"MET11205/12/20 11:53:02 METAR PANC 122053Z 28007KT 10SM FEW035 SCT055 09/03 A2990 RMK AO2 SLP124 T00890033 58009 (SCF)","FM-15","7",,,,,,,,,,,,,,,,,,,,,,,,,,,,"2006-06-01"
"70273026451","2020-05-12T12:53:00","FM-15","7",,"SE","1.7","mi","TEMP, PRECIP, SNOW","131",,"MMTS, SRG, SNOWBOARD, SNOWSTAKE","61.1561","-149.9847","ANCHORAGE FORECAST OFFICE, AK",,,,,,,,,,,,,,,,,,,,,,,,,,,"29.88","37","50","0.00",,,,"61","29.88","FEW:02 41 SCT:04 55","29.74","10.00","44","300",,"7",,,,,,,,,,,,,,,,,,,,,,,,,,,,,,,,,,,,,"MET10605/12/20 12:53:02 METAR PANC 122153Z 30006KT 10SM FEW041 SCT055 10/03 A2988 RMK AO2 SLP119 T01000028 (SCF)","FM-15","7",,,,,,,,,,,,,,,,,,,,,,,,,,,,"2006-06-01"
"70273026451","2020-05-12T13:53:00","FM-15","7",,"SE","1.7","mi","TEMP, PRECIP, SNOW","131",,"MMTS, SRG, SNOWBOARD, SNOWSTAKE","61.1561","-149.9847","ANCHORAGE FORECAST OFFICE, AK",,,,,,,,,,,,,,,,,,,,,,,,,,,"29.86","36","53","0.00",,,,"52","29.87","FEW:02 40 SCT:04 200","29.72","10.00","45","VRB",,"6",,,,,,,,,,,,,,,,,,,,,,,,,,,,,,,,,,,,,"MET10605/12/20 13:53:02 METAR PANC 122253Z VRB05KT 10SM FEW040 SCT200 12/02 A2986 RMK AO2 SLP114 T01170022 (SCF)","FM-15","7",,,,,,,,,,,,,,,,,,,,,,,,,,,,"2006-06-01"
"70273026451","2020-05-12T14:53:00","FM-15","7",,"SE","1.7","mi","TEMP, PRECIP, SNOW","131",,"MMTS, SRG, SNOWBOARD, SNOWSTAKE","61.1561","-149.9847","ANCHORAGE FORECAST OFFICE, AK",,,,,,,,,,,,,,,,,,,,,,,,,,,"29.84","37","53","0.00",,"+0.05","8","55","29.85","FEW:02 50 SCT:04 250","29.70","10.00","46","260",,"7",,,,,,,,,,,,,,,,,,,,,,,,,,,,,,,,,,,,,"MET12305/12/20 14:53:02 METAR PANC 122353Z 26006KT 10SM FEW050 SCT250 12/03 A2984 RMK AO2 SLP107 T01170028 10128 20078 58018 (EZ)","FM-15","7",,,,,,,,,,,,,,,,,,,,,,,,,,,,"2006-06-01"
"70273026451","2020-05-12T15:00:00","FM-12","4",,"SE","1.7","mi","TEMP, PRECIP, SNOW","131",,"MMTS, SRG, SNOWBOARD, SNOWSTAKE","61.1561","-149.9847","ANCHORAGE FORECAST OFFICE, AK",,,,,,,,,,,,,,,,,,,,,,,,,,,,"37","53",,,"+0.05","8","55","29.85","57","29.67","9.94","46","260",,"7",,,,,,,,,,,,,,,,,,,,,,,,,,,,,,,,,,,,,"SYN08070273 32766 42606 10117 20028 30047 40107 58018 92353 333 10128 20067 555 91300=","FM-12","4",,,,,,,,,,,,,,,,,,,,,,,,,,,,"2006-06-01"
"70273026451","2020-05-12T15:53:00","FM-15","7",,"SE","1.7","mi","TEMP, PRECIP, SNOW","131",,"MMTS, SRG, SNOWBOARD, SNOWSTAKE","61.1561","-149.9847","ANCHORAGE FORECAST OFFICE, AK",,,,,,,,,,,,,,,,,,,,,,,,,,,"29.83","37","55","0.00",,,,"51","29.83","FEW:02 60 SCT:04 250","29.69","10.00","47","260",,"6",,,,,,,,,,,,,,,,,,,,,,,,,,,,,,,,,,,,,"MET10005/12/20 15:53:01 METAR PANC 130053Z 26005KT 10SM FEW060 SCT250 13/03 A2983 RMK AO2 SLP101 T01280028","FM-15","7",,,,,,,,,,,,,,,,,,,,,,,,,,,,"2006-06-01"
"70273026451","2020-05-12T16:53:00","FM-15","7",,"SE","1.7","mi","TEMP, PRECIP, SNOW","131",,"MMTS, SRG, SNOWBOARD, SNOWSTAKE","61.1561","-149.9847","ANCHORAGE FORECAST OFFICE, AK",,,,,,,,,,,,,,,,,,,,,,,,,,,"29.82","39","56","0.00",,,,"53","29.82","FEW:02 60 SCT:04 250","29.68","10.00","48","290",,"8",,,,,,,,,,,,,,,,,,,,,,,,,,,,,,,,,,,,,"MET10005/12/20 16:53:01 METAR PANC 130153Z 29007KT 10SM FEW060 SCT250 13/04 A2982 RMK AO2 SLP097 T01330039","FM-15","7",,,,,,,,,,,,,,,,,,,,,,,,,,,,"2006-06-01"
"70273026451","2020-05-12T17:53:00","FM-15","7",,"SE","1.7","mi","TEMP, PRECIP, SNOW","131",,"MMTS, SRG, SNOWBOARD, SNOWSTAKE","61.1561","-149.9847","ANCHORAGE FORECAST OFFICE, AK",,,,,,,,,,,,,,,,,,,,,,,,,,,"29.80","36","56","0.00",,"+0.04","6","47","29.80","FEW:02 60 FEW:02 250","29.66","10.00","47","260",,"7",,,,,,,,,,,,,,,,,,,,,,,,,,,,,,,,,,,,,"MET10605/12/20 17:53:01 METAR PANC 130253Z 26006KT 10SM FEW060 FEW250 13/02 A2980 RMK AO2 SLP093 T01330022 56014","FM-15","7",,,,,,,,,,,,,,,,,,,,,,,,,,,,"2006-06-01"
"70273026451","2020-05-12T18:53:00","FM-15","7",,"SE","1.7","mi","TEMP, PRECIP, SNOW","131",,"MMTS, SRG, SNOWBOARD, SNOWSTAKE","61.1561","-149.9847","ANCHORAGE FORECAST OFFICE, AK",,,,,,,,,,,,,,,,,,,,,,,,,,,"29.78","35","54","0.00",,,,"49","29.78","FEW:02 60 FEW:02 250","29.64","10.00","45","250",,"9",,,,,,,,,,,,,,,,,,,,,,,,,,,,,,,,,,,,,"MET10005/12/20 18:53:02 METAR PANC 130353Z 25008KT 10SM FEW060 FEW250 12/02 A2978 RMK AO2 SLP086 T01220017","FM-15","7",,,,,,,,,,,,,,,,,,,,,,,,,,,,"2006-06-01"
"70273026451","2020-05-12T19:53:00","FM-15","7",,"SE","1.7","mi","TEMP, PRECIP, SNOW","131",,"MMTS, SRG, SNOWBOARD, SNOWSTAKE","61.1561","-149.9847","ANCHORAGE FORECAST OFFICE, AK",,,,,,,,,,,,,,,,,,,,,,,,,,,"29.77","33","52","0.00",,,,"49","29.77","FEW:02 60 FEW:02 250","29.63","10.00","44","250",,"10",,,,,,,,,,,,,,,,,,,,,,,,,,,,,,,,,,,,,"MET10005/12/20 19:53:02 METAR PANC 130453Z 25009KT 10SM FEW060 FEW250 11/01 A2977 RMK AO2 SLP082 T01110006","FM-15","7",,,,,,,,,,,,,,,,,,,,,,,,,,,,"2006-06-01"
"70273026451","2020-05-12T20:53:00","FM-15","7",,"SE","1.7","mi","TEMP, PRECIP, SNOW","131",,"MMTS, SRG, SNOWBOARD, SNOWSTAKE","61.1561","-149.9847","ANCHORAGE FORECAST OFFICE, AK",,,,,,,,,,,,,,,,,,,,,,,,,,,"29.77","32","50","0.00",,"+0.04","6","50","29.77","FEW:02 60 FEW:02 250","29.63","10.00","42","220",,"9",,,,,,,,,,,,,,,,,,,,,,,,,,,,,,,,,,,,,"MET11805/12/20 20:53:02 METAR PANC 130553Z 22008KT 10SM FEW060 FEW250 10/00 A2977 RMK AO2 SLP081 T01000000 10139 20100 56012","FM-15","7",,,,,,,,,,,,,,,,,,,,,,,,,,,,"2006-06-01"
"70273026451","2020-05-12T21:00:00","FM-12","4",,"SE","1.7","mi","TEMP, PRECIP, SNOW","131",,"MMTS, SRG, SNOWBOARD, SNOWSTAKE","61.1561","-149.9847","ANCHORAGE FORECAST OFFICE, AK",,,,,,,,,,,,,,,,,,,,,,,,,,,,"32","50",,,"+0.04","6","50","29.77","57","29.60","9.94","42","220",,"9",,,,,,,,,,,,,,,,,,,,,,,,,,,,,,,,,,,,,"SYN08070273 32766 22208 10100 20000 30023 40081 56012 90553 333 10139 20067 555 91306=","FM-12","4",,,,,,,,,,,,,,,,,,,,,,,,,,,,"2006-06-01"
"70273026451","2020-05-12T21:53:00","FM-15","7",,"SE","1.7","mi","TEMP, PRECIP, SNOW","131",,"MMTS, SRG, SNOWBOARD, SNOWSTAKE","61.1561","-149.9847","ANCHORAGE FORECAST OFFICE, AK",,,,,,,,,,,,,,,,,,,,,,,,,,,"29.76","32","48","0.00",,,,"54","29.76","FEW:02 90 FEW:02 250","29.62","10.00","41","220",,"11",,,,,,,,,,,,,,,,,,,,,,,,,,,,,,,,,,,,,"MET10005/12/20 21:53:02 METAR PANC 130653Z 22010KT 10SM FEW090 FEW250 09/00 A2976 RMK AO2 SLP078 T00890000","FM-15","7",,,,,,,,,,,,,,,,,,,,,,,,,,,,"2006-06-01"
"70273026451","2020-05-12T22:53:00","FM-15","7",,"SE","1.7","mi","TEMP, PRECIP, SNOW","131",,"MMTS, SRG, SNOWBOARD, SNOWSTAKE","61.1561","-149.9847","ANCHORAGE FORECAST OFFICE, AK",,,,,,,,,,,,,,,,,,,,,,,,,,,"29.76","33","47","0.00",,,,"59","29.76","FEW:02 55 FEW:02 90 SCT:04 250","29.62","10.00","41","190",,"8",,,,,,,,,,,,,,,,,,,,,,,,,,,,,,,,,,,,,"MET10705/12/20 22:53:02 METAR PANC 130753Z 19007KT 10SM FEW055 FEW090 SCT250 08/01 A2976 RMK AO2 SLP077 T00830006","FM-15","7",,,,,,,,,,,,,,,,,,,,,,,,,,,,"2006-06-01"
"70273026451","2020-05-12T23:53:00","FM-15","7",,"SE","1.7","mi","TEMP, PRECIP, SNOW","131",,"MMTS, SRG, SNOWBOARD, SNOWSTAKE","61.1561","-149.9847","ANCHORAGE FORECAST OFFICE, AK",,,,,,,,,,,,,,,,,,,,,,,,,,,"29.74","33","47","0.00",,"+0.02","8","59","29.75","FEW:02 90 FEW:02 250","29.60","10.00","41","180",,"9",,,,,,,,,,,,,,,,,,,,,,,,,,,,,,,,,,,,,"MET11605/12/20 23:53:02 METAR PANC 130853Z 18008KT 10SM FEW090 FEW250 08/01 A2974 RMK AO2 SLP073 T00830006 401390056 58007","FM-15","7",,,,,,,,,,,,,,,,,,,,,,,,,,,,"2006-06-01"
"70273026451","2020-05-12T23:59:00","SOD  ","6",,"SE","1.7","mi","TEMP, PRECIP, SNOW","131",,"MMTS, SRG, SNOWBOARD, SNOWSTAKE","61.1561","-149.9847","ANCHORAGE FORECAST OFFICE, AK",,,,"36","50","62","29.87","29.72","43","6.8","0","3.3","15","57","42","210","25","0.00","0","0.0","220","17",,,,,,,,,,,,,,,,,,,,,,,,,,,,,,,,,,,,,,,,,,,,,,,,,,,,,,,,,"SOD73024 HR PRECIPITATION (IN):0.00  24 HR MAX TEMP (F):57 24 HR MAX TEMP TIME (LST):1748 24 HR MIN TEMP (F):42 24 HR MIN TEMP TIME (LST):0420 AVERAGE STATION PRESSURE:29.725 MINIMUM SEA LEVEL PRESSURE:29.75 TIME OF OCCURRENCE:2359 PEAK WIND SPEED (MPH):25  PEAK WIND DIR (DEG):210 PEAK WIND TIME (LST):2125  FASTEST 2MIN SPEED (MPH):17 FASTEST 2MIN DIR (DEG):220 FASTEST 2MIN TIME (LST):2126 AVERAGE WIND SPEED (MPH):6.8  24 HR AVG TEMP (F):50 HEATING DEGREE DAYS:15  COOLING DEGREE DAYS:0   LATEST DAY MAX TEMP (0700-1900 LST):57  LATEST NIGHT MIN TEMP(1900-0800 LST):42 HOURLY INCREMENTAL PRECIPITATION VALUES (IN):.00 0.00 0.00 0.00 0.00 0.00 0.00 0.00 0.00 0.00 0.00 0.00 0.00 0.00 0.00 0.00 0.00 0.00 0.00 0.00 0.00 0.00 0.00 0.00","SOD  ","6",,,,,,,,,,,,,,,,,,,,,,,,,"0418","2136",,"2006-06-01"
"70273026451","2020-05-13T00:53:00","FM-15","7",,"SE","1.7","mi","TEMP, PRECIP, SNOW","131",,"MMTS, SRG, SNOWBOARD, SNOWSTAKE","61.1561","-149.9847","ANCHORAGE FORECAST OFFICE, AK",,,,,,,,,,,,,,,,,,,,,,,,,,,"29.74","31","46","0.00",,,,"56","29.74","FEW:02 90 FEW:02 200","29.60","10.00","40","180",,"5",,,,,,,,,,,,,,,,,,,,,,,,,,,,,,,,,,,,,"MET10705/13/20 00:53:02 METAR PANC 130953Z 18004KT 10SM FEW090 FEW200 08/M01 A2974 RMK AO2 SLP071 T00781006 (PEV)","FM-15","7",,,,,,,,,,,,,,,,,,,,,,,,,,,,"2006-06-01"
"70273026451","2020-05-13T01:53:00","FM-15","7",,"SE","1.7","mi","TEMP, PRECIP, SNOW","131",,"MMTS, SRG, SNOWBOARD, SNOWSTAKE","61.1561","-149.9847","ANCHORAGE FORECAST OFFICE, AK",,,,,,,,,,,,,,,,,,,,,,,,,,,"29.73","34","44","0.00",,,,"68","29.73","CLR:00","29.59","10.00","40","000",,"0",,,,,,,,,,,,,,,,,,,,,,,,,,,,,,,,,,,,,"MET09605/13/20 01:53:02 METAR PANC 131053Z 00000KT 10SM CLR 07/01 A2973 RMK AO2 SLP068 T00670011 (PEV)","FM-15","7",,,,,,,,,,,,,,,,,,,,,,,,,,,,"2006-06-01"
"70273026451","2020-05-13T02:53:00","FM-15","7",,"SE","1.7","mi","TEMP, PRECIP, SNOW","131",,"MMTS, SRG, SNOWBOARD, SNOWSTAKE","61.1561","-149.9847","ANCHORAGE FORECAST OFFICE, AK",,,,,,,,,,,,,,,,,,,,,,,,,,,"29.72","32","45","0.00",,"+0.02","8","61","29.72","FEW:02 250","29.58","10.00","39","200",,"7",,,,,,,,,,,,,,,,,,,,,,,,,,,,,,,,,,,,,"MET11705/13/20 02:53:02 METAR PANC 131153Z 20006KT 10SM FEW250 07/00 A2972 RMK AO2 SLP065 T00720000 10100 20061 58008 (PEV)","FM-15","7",,,,,,,,,,,,,,,,,,,,,,,,,,,,"2006-06-01"
"70273026451","2020-05-13T03:00:00","FM-12","4",,"SE","1.7","mi","TEMP, PRECIP, SNOW","131",,"MMTS, SRG, SNOWBOARD, SNOWSTAKE","61.1561","-149.9847","ANCHORAGE FORECAST OFFICE, AK",,,,,,,,,,,,,,,,,,,,,,,,,,,,"32","45",,,"+0.02","8","61","29.72",,"29.55","9.94","39","200",,"7",,,,,,,,,,,,,,,,,,,,,,,,,,,,,,,,,,,,,"SYN07470273 32966 22006 10072 20000 30007 40065 58008 91153 333 20061 555 91312=","FM-12","4",,,,,,,,,,,,,,,,,,,,,,,,,,,,"2006-06-01"
"70273026451","2020-05-13T03:53:00","FM-15","7",,"SE","1.7","mi","TEMP, PRECIP, SNOW","131",,"MMTS, SRG, SNOWBOARD, SNOWSTAKE","61.1561","-149.9847","ANCHORAGE FORECAST OFFICE, AK",,,,,,,,,,,,,,,,,,,,,,,,,,,"29.72","32","42","0.00",,,,"68","29.72","FEW:02 250","29.58","10.00","38","000",,"0",,,,,,,,,,,,,,,,,,,,,,,,,,,,,,,,,,,,,"MET09905/13/20 03:53:02 METAR PANC 131253Z 00000KT 10SM FEW250 06/00 A2972 RMK AO2 SLP065 T00560000 (PEV)","FM-15","7",,,,,,,,,,,,,,,,,,,,,,,,,,,,"2006-06-01"
"70273026451","2020-05-13T04:53:00","FM-15","7",,"SE","1.7","mi","TEMP, PRECIP, SNOW","131",,"MMTS, SRG, SNOWBOARD, SNOWSTAKE","61.1561","-149.9847","ANCHORAGE FORECAST OFFICE, AK",,,,,,,,,,,,,,,,,,,,,,,,,,,"29.72","33","40","0.00",,,,"77","29.72","SCT:04 250","29.58","10.00","37","150",,"3",,,,,,,,,,,,,,,,,,,,,,,,,,,,,,,,,,,,,"MET09905/13/20 04:53:02 METAR PANC 131353Z 15003KT 10SM SCT250 04/01 A2972 RMK AO2 SLP063 T00440006 (PEV)","FM-15","7",,,,,,,,,,,,,,,,,,,,,,,,,,,,"2006-06-01"
"70273026451","2020-05-13T05:53:00","FM-15","7",,"SE","1.7","mi","TEMP, PRECIP, SNOW","131",,"MMTS, SRG, SNOWBOARD, SNOWSTAKE","61.1561","-149.9847","ANCHORAGE FORECAST OFFICE, AK",,,,,,,,,,,,,,,,,,,,,,,,,,,"29.71","34","42","0.00",,"+0.01","8","73","29.71","SCT:04 250","29.57","10.00","39","160",,"3",,,,,,,,,,,,,,,,,,,,,,,,,,,,,,,,,,,,,"MET10505/13/20 05:53:02 METAR PANC 131453Z 16003KT 10SM SCT250 06/01 A2971 RMK AO2 SLP061 T00560011 58004 (SCF)","FM-15","7",,,,,,,,,,,,,,,,,,,,,,,,,,,,"2006-06-01"
"70273026451","2020-05-13T06:53:00","FM-15","7",,"SE","1.7","mi","TEMP, PRECIP, SNOW","131",,"MMTS, SRG, SNOWBOARD, SNOWSTAKE","61.1561","-149.9847","ANCHORAGE FORECAST OFFICE, AK",,,,,,,,,,,,,,,,,,,,,,,,,,,"29.70","33","44","0.00",,,,"65","29.70","BKN:07 250","29.56","10.00","39","160",,"6",,,,,,,,,,,,,,,,,,,,,,,,,,,,,,,,,,,,,"MET09905/13/20 06:53:02 METAR PANC 131553Z 16005KT 10SM BKN250 07/01 A2970 RMK AO2 SLP059 T00670006 (SCF)","FM-15","7",,,,,,,,,,,,,,,,,,,,,,,,,,,,"2006-06-01"
"70273026451","2020-05-13T07:53:00","FM-15","7",,"SE","1.7","mi","TEMP, PRECIP, SNOW","131",,"MMTS, SRG, SNOWBOARD, SNOWSTAKE","61.1561","-149.9847","ANCHORAGE FORECAST OFFICE, AK",,,,,,,,,,,,,,,,,,,,,,,,,,,"29.70","34","47","0.00",,,,"61","29.70","BKN:07 250","29.56","10.00","41","210",,"5",,,,,,,,,,,,,,,,,,,,,,,,,,,,,,,,,,,,,"MET09905/13/20 07:53:02 METAR PANC 131653Z 21004KT 10SM BKN250 08/01 A2970 RMK AO2 SLP056 T00830011 (SCF)","FM-15","7",,,,,,,,,,,,,,,,,,,,,,,,,,,,"2006-06-01"
"70273026451","2020-05-13T08:53:00","FM-15","7",,"SE","1.7","mi","TEMP, PRECIP, SNOW","131",,"MMTS, SRG, SNOWBOARD, SNOWSTAKE","61.1561","-149.9847","ANCHORAGE FORECAST OFFICE, AK",,,,,,,,,,,,,,,,,,,,,,,,,,,"29.69","34","48","0.00",,"+0.02","8","58","29.69","SCT:04 250","29.55","9.00","42","250",,"5",,,,,,,,,,,,,,,,,,,,,,,,,,,,,,,,,,,,,"MET11605/13/20 08:53:02 METAR PANC 131753Z 25004KT 9SM SCT250 09/01 A2969 RMK AO2 SLP054 T00890011 10089 20033 58007 (SCF)","FM-15","7",,,,,,,,,,,,,,,,,,,,,,,,,,,,"2006-06-01"
"70273026451","2020-05-13T09:00:00","FM-12","4",,"SE","1.7","mi","TEMP, PRECIP, SNOW","131",,"MMTS, SRG, SNOWBOARD, SNOWSTAKE","61.1561","-149.9847","ANCHORAGE FORECAST OFFICE, AK",,,,,,,,,,,,,,,,,,,,,,,,,,,,"34","48",,,"+0.02","8","58","29.69",,"29.52","8.70","42","250",,"5",,,,,,,,,,,,,,,,,,,,,,,,,,,,,,,,,,,,,"SYN08070273 32964 42504 10089 20011 39997 40054 58007 91753 333 10100 20033 555 91318=","FM-12","4",,,,,,,,,,,,,,,,,,,,,,,,,,,,"2006-06-01"
"70273026451","2020-05-13T09:53:00","FM-15","7",,"SE","1.7","mi","TEMP, PRECIP, SNOW","131",,"MMTS, SRG, SNOWBOARD, SNOWSTAKE","61.1561","-149.9847","ANCHORAGE FORECAST OFFICE, AK",,,,,,,,,,,,,,,,,,,,,,,,,,,"29.68","36","49","0.00",,,,"61","29.68","SCT:04 250","29.54","10.00","43","310",,"6",,,,,,,,,,,,,,,,,,,,,,,,,,,,,,,,,,,,,"MET09905/13/20 09:53:02 METAR PANC 131853Z 31005KT 10SM SCT250 09/02 A2968 RMK AO2 SLP050 T00940022 (SCF)","FM-15","7",,,,,,,,,,,,,,,,,,,,,,,,,,,,"2006-06-01"
"70273026451","2020-05-13T10:53:00","FM-15","7",,"SE","1.7","mi","TEMP, PRECIP, SNOW","131",,"MMTS, SRG, SNOWBOARD, SNOWSTAKE","61.1561","-149.9847","ANCHORAGE FORECAST OFFICE, AK",,,,,,,,,,,,,,,,,,,,,,,,,,,"29.67","34","52","0.00",,,,"50","29.67","SCT:04 250","29.53","10.00","44","280",,"7",,,,,,,,,,,,,,,,,,,,,,,,,,,,,,,,,,,,,"MET09905/13/20 10:53:02 METAR PANC 131953Z 28006KT 10SM SCT250 11/01 A2967 RMK AO2 SLP047 T01110011 (SCF)","FM-15","7",,,,,,,,,,,,,,,,,,,,,,,,,,,,"2006-06-01"
"70273026451","2020-05-13T11:53:00","FM-15","7",,"SE","1.7","mi","TEMP, PRECIP, SNOW","131",,"MMTS, SRG, SNOWBOARD, SNOWSTAKE","61.1561","-149.9847","ANCHORAGE FORECAST OFFICE, AK",,,,,,,,,,,,,,,,,,,,,,,,,,,"29.67","36","51","0.00",,"+0.02","6","56","29.67","SCT:04 250","29.53","10.00","44","310",,"7",,,,,,,,,,,,,,,,,,,,,,,,,,,,,,,,,,,,,"MET10505/13/20 11:53:02 METAR PANC 132053Z 31006KT 10SM SCT250 11/02 A2967 RMK AO2 SLP046 T01060022 56007 (SCF)","FM-15","7",,,,,,,,,,,,,,,,,,,,,,,,,,,,"2006-06-01"
"70273026451","2020-05-13T12:53:00","FM-15","7",,"SE","1.7","mi","TEMP, PRECIP, SNOW","131",,"MMTS, SRG, SNOWBOARD, SNOWSTAKE","61.1561","-149.9847","ANCHORAGE FORECAST OFFICE, AK",,,,,,,,,,,,,,,,,,,,,,,,,,,"29.66","36","56","0.00",,,,"47","29.66","FEW:02 200","29.52","10.00","47","310",,"7",,,,,,,,,,,,,,,,,,,,,,,,,,,,,,,,,,,,,"MET09905/13/20 12:53:02 METAR PANC 132153Z 31006KT 10SM FEW200 13/02 A2966 RMK AO2 SLP043 T01330022 (SCF)","FM-15","7",,,,,,,,,,,,,,,,,,,,,,,,,,,,"2006-06-01"
"70273026451","2020-05-13T13:53:00","FM-15","7",,"SE","1.7","mi","TEMP, PRECIP, SNOW","131",,"MMTS, SRG, SNOWBOARD, SNOWSTAKE","61.1561","-149.9847","ANCHORAGE FORECAST OFFICE, AK",,,,,,,,,,,,,,,,,,,,,,,,,,,"29.65","39","56","0.00",,,,"53","29.65","FEW:02 140 FEW:02 250","29.51","10.00","48","310",,"8",,,,,,,,,,,,,,,,,,,,,,,,,,,,,,,,,,,,,"MET10605/13/20 13:53:02 METAR PANC 132253Z 31007KT 10SM FEW140 FEW250 13/04 A2965 RMK AO2 SLP040 T01330039 (SCF)","FM-15","7",,,,,,,,,,,,,,,,,,,,,,,,,,,,"2006-06-01"
"70273026451","2020-05-13T14:53:00","FM-15","7",,"SE","1.7","mi","TEMP, PRECIP, SNOW","131",,"MMTS, SRG, SNOWBOARD, SNOWSTAKE","61.1561","-149.9847","ANCHORAGE FORECAST OFFICE, AK",,,,,,,,,,,,,,,,,,,,,,,,,,,"29.64","37","59","0.00",,"+0.02","6","44","29.64","FEW:02 140 FEW:02 250","29.50","10.00","48","310",,"9",,,,,,,,,,,,,,,,,,,,,,,,,,,,,,,,,,,,,"MET13005/13/20 14:53:02 METAR PANC 132353Z 31008KT 10SM FEW140 FEW250 15/03 A2964 RMK AO2 SLP038 ACSL S T01500028 10150 20089 56008 (EZ)","FM-15","7",,,,,,,,,,,,,,,,,,,,,,,,,,,,"2006-06-01"
"70273026451","2020-05-13T15:00:00","FM-12","4",,"SE","1.7","mi","TEMP, PRECIP, SNOW","131",,"MMTS, SRG, SNOWBOARD, SNOWSTAKE","61.1561","-149.9847","ANCHORAGE FORECAST OFFICE, AK",,,,,,,,,,,,,,,,,,,,,,,,,,,,"37","59",,,"+0.02","6","44","29.64",,"29.47","9.94","48","310",,"9",,,,,,,,,,,,,,,,,,,,,,,,,,,,,,,,,,,,,"SYN08070273 32966 23108 10150 20028 39980 40038 56008 92353 333 10150 20061 555 91400=","FM-12","4",,,,,,,,,,,,,,,,,,,,,,,,,,,,"2006-06-01"
"70273026451","2020-05-13T15:53:00","FM-15","7",,"SE","1.7","mi","TEMP, PRECIP, SNOW","131",,"MMTS, SRG, SNOWBOARD, SNOWSTAKE","61.1561","-149.9847","ANCHORAGE FORECAST OFFICE, AK",,,,,,,,,,,,,,,,,,,,,,,,,,,"29.64","37","59","0.00",,,,"44","29.64","FEW:02 60 FEW:02 140 FEW:02 250","29.50","10.00","48","290",,"8",,,,,,,,,,,,,,,,,,,,,,,,,,,,,,,,,,,,,"MET12205/13/20 15:53:01 METAR PANC 140053Z 29007KT 10SM FEW060 FEW140 FEW250 15/03 A2964 RMK AO2 SLP036 ACSL E AND S T01500028 $","FM-15","7",,,,,,,,,,,,,,,,,,,,,,,,,,,,"2006-06-01"
"70273026451","2020-05-13T16:53:00","FM-15","7",,"SE","1.7","mi","TEMP, PRECIP, SNOW","131",,"MMTS, SRG, SNOWBOARD, SNOWSTAKE","61.1561","-149.9847","ANCHORAGE FORECAST OFFICE, AK",,,,,,,,,,,,,,,,,,,,,,,,,,,"29.64","38","59","0.00",,,,"46","29.64","FEW:02 60 FEW:02 140 FEW:02 250","29.50","10.00","49","280",,"8",,,,,,,,,,,,,,,,,,,,,,,,,,,,,,,,,,,,,"MET11605/13/20 16:53:01 METAR PANC 140153Z 28007KT 10SM FEW060 FEW140 FEW250 15/03 A2964 RMK AO2 SLP036 ACSL E T01500033 $","FM-15","7",,,,,,,,,,,,,,,,,,,,,,,,,,,,"2006-06-01"
"70273026451","2020-05-13T17:53:00","FM-15","7",,"SE","1.7","mi","TEMP, PRECIP, SNOW","131",,"MMTS, SRG, SNOWBOARD, SNOWSTAKE","61.1561","-149.9847","ANCHORAGE FORECAST OFFICE, AK",,,,,,,,,,,,,,,,,,,,,,,,,,,"29.64","37","58","0.00",,,,"46","29.64","FEW:02 60 FEW:02 140 FEW:02 220","29.50","10.00","48","310",,"8",,,,,,,,,,,,,,,,,,,,,,,,,,,,,,,,,,,,,"MET10905/13/20 17:53:01 METAR PANC 140253Z 31007KT 10SM FEW060 FEW140 FEW220 14/03 A2964 RMK AO2 SLP037 T01440028 $","FM-15","7",,,,,,,,,,,,,,,,,,,,,,,,,,,,"2006-06-01"
"70273026451","2020-05-13T18:53:00","FM-15","7",,"SE","1.7","mi","TEMP, PRECIP, SNOW","131",,"MMTS, SRG, SNOWBOARD, SNOWSTAKE","61.1561","-149.9847","ANCHORAGE FORECAST OFFICE, AK",,,,,,,,,,,,,,,,,,,,,,,,,,,"29.64","38","59","0.00",,,,"46","29.64","FEW:02 140 SCT:04 250","29.50","10.00","49","280",,"6",,,,,,,,,,,,,,,,,,,,,,,,,,,,,,,,,,,,,"MET10205/13/20 18:53:02 METAR PANC 140353Z 28005KT 10SM FEW140 SCT250 15/03 A2964 RMK AO2 SLP037 T01500033 $","FM-15","7",,,,,,,,,,,,,,,,,,,,,,,,,,,,"2006-06-01"
"70273026451","2020-05-13T19:53:00","FM-15","7",,"SE","1.7","mi","TEMP, PRECIP, SNOW","131",,"MMTS, SRG, SNOWBOARD, SNOWSTAKE","61.1561","-149.9847","ANCHORAGE FORECAST OFFICE, AK",,,,,,,,,,,,,,,,,,,,,,,,,,,"29.65","35","56","0.00",,,,"46","29.65","FEW:02 140 FEW:02 250","29.51","10.00","46","260",,"6",,,,,,,,,,,,,,,,,,,,,,,,,,,,,,,,,,,,,"MET10205/13/20 19:53:02 METAR PANC 140453Z 26005KT 10SM FEW140 FEW250 13/02 A2965 RMK AO2 SLP039 T01330017 $","FM-15","7",,,,,,,,,,,,,,,,,,,,,,,,,,,,"2006-06-01"
"70273026451","2020-05-13T20:53:00","FM-15","7",,"SE","1.7","mi","TEMP, PRECIP, SNOW","131",,"MMTS, SRG, SNOWBOARD, SNOWSTAKE","61.1561","-149.9847","ANCHORAGE FORECAST OFFICE, AK",,,,,,,,,,,,,,,,,,,,,,,,,,,"29.66","34","53","0.00",,"-0.02","3","48","29.66","FEW:02 140 FEW:02 250","29.52","10.00","44","230",,"7",,,,,,,,,,,,,,,,,,,,,,,,,,,,,,,,,,,,,"MET12005/13/20 20:53:02 METAR PANC 140553Z 23006KT 10SM FEW140 FEW250 12/01 A2966 RMK AO2 SLP043 T01170011 10156 20117 53006 $","FM-15","7",,,,,,,,,,,,,,,,,,,,,,,,,,,,"2006-06-01"
"70273026451","2020-05-13T21:00:00","FM-12","4",,"SE","1.7","mi","TEMP, PRECIP, SNOW","131",,"MMTS, SRG, SNOWBOARD, SNOWSTAKE","61.1561","-149.9847","ANCHORAGE FORECAST OFFICE, AK",,,,,,,,,,,,,,,,,,,,,,,,,,,,"34","53",,,"-0.02","3","48","29.66",,"29.49","9.94","44","230",,"7",,,,,,,,,,,,,,,,,,,,,,,,,,,,,,,,,,,,,"SYN08070273 32966 22306 10117 20011 39986 40043 53006 90553 333 10156 20061 555 91406=","FM-12","4",,,,,,,,,,,,,,,,,,,,,,,,,,,,"2006-06-01"
"70273026451","2020-05-13T21:53:00","FM-15","7",,"SE","1.7","mi","TEMP, PRECIP, SNOW","131",,"MMTS, SRG, SNOWBOARD, SNOWSTAKE","61.1561","-149.9847","ANCHORAGE FORECAST OFFICE, AK",,,,,,,,,,,,,,,,,,,,,,,,,,,"29.68","35","51","0.00",,,,"54","29.68","FEW:02 140 FEW:02 250","29.54","10.00","44","230",,"13",,,,,,,,,,,,,,,,,,,,,,,,,,,,,,,,,,,,,"MET10205/13/20 21:53:02 METAR PANC 140653Z 23011KT 10SM FEW140 FEW250 11/02 A2968 RMK AO2 SLP050 T01060017 $","FM-15","7",,,,,,,,,,,,,,,,,,,,,,,,,,,,"2006-06-01"
"70273026451","2020-05-13T22:53:00","FM-15","7",,"SE","1.7","mi","TEMP, PRECIP, SNOW","131",,"MMTS, SRG, SNOWBOARD, SNOWSTAKE","61.1561","-149.9847","ANCHORAGE FORECAST OFFICE, AK",,,,,,,,,,,,,,,,,,,,,,,,,,,"29.70","37","47","0.00",,,,"69","29.70","FEW:02 150 FEW:02 250","29.56","10.00","42","140",,"5",,,,,,,,,,,,,,,,,,,,,,,,,,,,,,,,,,,,,"MET10205/13/20 22:53:02 METAR PANC 140753Z 14004KT 10SM FEW150 FEW250 08/03 A2970 RMK AO2 SLP057 T00830028 $","FM-15","7",,,,,,,,,,,,,,,,,,,,,,,,,,,,"2006-06-01"
"70273026451","2020-05-13T23:53:00","FM-15","7",,"SE","1.7","mi","TEMP, PRECIP, SNOW","131",,"MMTS, SRG, SNOWBOARD, SNOWSTAKE","61.1561","-149.9847","ANCHORAGE FORECAST OFFICE, AK",,,,,,,,,,,,,,,,,,,,,,,,,,,"29.71","35","49","0.00",,"-0.05","1","59","29.71","FEW:02 200","29.57","10.00","43","190",,"10",,,,,,,,,,,,,,,,,,,,,,,,,,,,,,,,,,,,,"MET11105/13/20 23:53:02 METAR PANC 140853Z 19009KT 10SM FEW200 09/02 A2971 RMK AO2 SLP062 T00940017 401560033 51018 $","FM-15","7",,,,,,,,,,,,,,,,,,,,,,,,,,,,"2006-06-01"
"70273026451","2020-05-13T23:59:00","SOD  ","6",,"SE","1.7","mi","TEMP, PRECIP, SNOW","131",,"MMTS, SRG, SNOWBOARD, SNOWSTAKE","61.1561","-149.9847","ANCHORAGE FORECAST OFFICE, AK",,,,"35","49","57","29.69","29.53","43","6.1","0","2.0","16","60","38","220","21","0.00","0","0.0","230","16",,,,,,,,,,,,,,,,,,,,,,,,,,,,,,,,,,,,,,,,,,,,,,,,,,,,,,,,,"SOD73024 HR PRECIPITATION (IN):0.00  24 HR MAX TEMP (F):60 24 HR MAX TEMP TIME (LST):1726 24 HR MIN TEMP (F):38 24 HR MIN TEMP TIME (LST):0519 AVERAGE STATION PRESSURE:29.530 MINIMUM SEA LEVEL PRESSURE:29.63 TIME OF OCCURRENCE:1707 PEAK WIND SPEED (MPH):21  PEAK WIND DIR (DEG):220 PEAK WIND TIME (LST):2148  FASTEST 2MIN SPEED (MPH):16 FASTEST 2MIN DIR (DEG):230 FASTEST 2MIN TIME (LST):2148 AVERAGE WIND SPEED (MPH):6.1  24 HR AVG TEMP (F):49 HEATING DEGREE DAYS:16  COOLING DEGREE DAYS:0   LATEST DAY MAX TEMP (0700-1900 LST):60  LATEST NIGHT MIN TEMP(1900-0800 LST):38 HOURLY INCREMENTAL PRECIPITATION VALUES (IN):.00 0.00 0.00 0.00 0.00 0.00 0.00 0.00 0.00 0.00 0.00 0.00 0.00 0.00 0.00 0.00 0.00 0.00 0.00 0.00 0.00 0.00 0.00 0.00","SOD  ","6",,,,,,,,,,,,,,,,,,,,,,,,,"0416","2138",,"2006-06-01"
"70273026451","2020-05-14T00:53:00","FM-15","7",,"SE","1.7","mi","TEMP, PRECIP, SNOW","131",,"MMTS, SRG, SNOWBOARD, SNOWSTAKE","61.1561","-149.9847","ANCHORAGE FORECAST OFFICE, AK",,,,,,,,,,,,,,,,,,,,,,,,,,,"29.73","33","49","0.00",,,,"55","29.73","CLR:00","29.59","10.00","42","200",,"8",,,,,,,,,,,,,,,,,,,,,,,,,,,,,,,,,,,,,"MET09805/14/20 00:53:02 METAR PANC 140953Z 20007KT 10SM CLR 09/01 A2973 RMK AO2 SLP068 T00940006 $ (KTH)","FM-15","7",,,,,,,,,,,,,,,,,,,,,,,,,,,,"2006-06-01"
"70273026451","2020-05-14T01:53:00","FM-15","7",,"SE","1.7","mi","TEMP, PRECIP, SNOW","131",,"MMTS, SRG, SNOWBOARD, SNOWSTAKE","61.1561","-149.9847","ANCHORAGE FORECAST OFFICE, AK",,,,,,,,,,,,,,,,,,,,,,,,,,,"29.74","34","43","0.00",,,,"71","29.74","FEW:02 130","29.60","10.00","39","190",,"8",,,,,,,,,,,,,,,,,,,,,,,,,,,,,,,,,,,,,"MET10105/14/20 01:53:02 METAR PANC 141053Z 19007KT 10SM FEW130 06/01 A2974 RMK AO2 SLP071 T00610011 $ (KTH)","FM-15","7",,,,,,,,,,,,,,,,,,,,,,,,,,,,"2006-06-01"
"70273026451","2020-05-14T02:53:00","FM-15","7",,"SE","1.7","mi","TEMP, PRECIP, SNOW","131",,"MMTS, SRG, SNOWBOARD, SNOWSTAKE","61.1561","-149.9847","ANCHORAGE FORECAST OFFICE, AK",,,,,,,,,,,,,,,,,,,,,,,,,,,"29.74","33","40","0.00",,"-0.03","1","77","29.75","CLR:00","29.60","10.00","37","140",,"6",,,,,,,,,,,,,,,,,,,,,,,,,,,,,,,,,,,,,"MET11605/14/20 02:53:02 METAR PANC 141153Z 14005KT 10SM CLR 04/01 A2974 RMK AO2 SLP073 T00440006 10117 20039 51011 $ (KTH)","FM-15","7",,,,,,,,,,,,,,,,,,,,,,,,,,,,"2006-06-01"
"70273026451","2020-05-14T03:00:00","FM-12","4",,"SE","1.7","mi","TEMP, PRECIP, SNOW","131",,"MMTS, SRG, SNOWBOARD, SNOWSTAKE","61.1561","-149.9847","ANCHORAGE FORECAST OFFICE, AK",,,,,,,,,,,,,,,,,,,,,,,,,,,,"33","40",,,"-0.03","1","77","29.75",,"29.57","9.94","37","140",,"6",,,,,,,,,,,,,,,,,,,,,,,,,,,,,,,,,,,,,"SYN07470273 32966 01405 10044 20006 30013 40073 51011 91153 333 20039 555 91412=","FM-12","4",,,,,,,,,,,,,,,,,,,,,,,,,,,,"2006-06-01"
"70273026451","2020-05-14T03:53:00","FM-15","7",,"SE","1.7","mi","TEMP, PRECIP, SNOW","131",,"MMTS, SRG, SNOWBOARD, SNOWSTAKE","61.1561","-149.9847","ANCHORAGE FORECAST OFFICE, AK",,,,,,,,,,,,,,,,,,,,,,,,,,,"29.75","34","41","0.00",,,,"76","29.75","CLR:00","29.61","7.00","38","170",,"7",,,,,,,,,,,,,,,,,,,,,,,,,,,,,,,,,,,,,"MET09705/14/20 03:53:02 METAR PANC 141253Z 17006KT 7SM CLR 05/01 A2975 RMK AO2 SLP075 T00500011 $ (KTH)","FM-15","7",,,,,,,,,,,,,,,,,,,,,,,,,,,,"2006-06-01"
"70273026451","2020-05-14T04:53:00","FM-15","7",,"SE","1.7","mi","TEMP, PRECIP, SNOW","131",,"MMTS, SRG, SNOWBOARD, SNOWSTAKE","61.1561","-149.9847","ANCHORAGE FORECAST OFFICE, AK",,,,,,,,,,,,,,,,,,,,,,,,,,,"29.75","34","42","0.00",,,,"73","29.75","FEW:02 130","29.61","10.00","39","160",,"6",,,,,,,,,,,,,,,,,,,,,,,,,,,,,,,,,,,,,"MET09905/14/20 04:53:02 METAR PANC 141353Z 16005KT 10SM FEW130 06/01 A2975 RMK AO2 SLP075 T00560011 (KTH)","FM-15","7",,,,,,,,,,,,,,,,,,,,,,,,,,,,"2006-06-01"
"70273026451","2020-05-14T05:53:00","FM-15","7",,"SE","1.7","mi","TEMP, PRECIP, SNOW","131",,"MMTS, SRG, SNOWBOARD, SNOWSTAKE","61.1561","-149.9847","ANCHORAGE FORECAST OFFICE, AK",,,,,,,,,,,,,,,,,,,,,,,,,,,"29.77","35","46","0.00",,"-0.02","3","66","29.77","FEW:02 130","29.63","10.00","41","180",,"3",,,,,,,,,,,,,,,,,,,,,,,,,,,,,,,,,,,,,"MET10505/14/20 05:53:02 METAR PANC 141453Z 18003KT 10SM FEW130 08/02 A2977 RMK AO2 SLP080 T00780017 53008 (KTH)","FM-15","7",,,,,,,,,,,,,,,,,,,,,,,,,,,,"2006-06-01"
"70273026451","2020-05-14T06:53:00","FM-15","7",,"SE","1.7","mi","TEMP, PRECIP, SNOW","131",,"MMTS, SRG, SNOWBOARD, SNOWSTAKE","61.1561","-149.9847","ANCHORAGE FORECAST OFFICE, AK",,,,,,,,,,,,,,,,,,,,,,,,,,,"29.78","36","50","0.00",,,,"59","29.78","FEW:02 130","29.64","10.00","44","150",,"3",,,,,,,,,,,,,,,,,,,,,,,,,,,,,,,,,,,,,"MET09905/14/20 06:53:02 METAR PANC 141553Z 15003KT 10SM FEW130 10/02 A2978 RMK AO2 SLP083 T01000022 (SCF)","FM-15","7",,,,,,,,,,,,,,,,,,,,,,,,,,,,"2006-06-01"
"70273026451","2020-05-14T07:53:00","FM-15","7",,"SE","1.7","mi","TEMP, PRECIP, SNOW","131",,"MMTS, SRG, SNOWBOARD, SNOWSTAKE","61.1561","-149.9847","ANCHORAGE FORECAST OFFICE, AK",,,,,,,,,,,,,,,,,,,,,,,,,,,"29.78","32","53","0.00",,,,"45","29.78","CLR:00","29.64","10.00","44","VRB",,"5",,,,,,,,,,,,,,,,,,,,,,,,,,,,,,,,,,,,,"MET09605/14/20 07:53:02 METAR PANC 141653Z VRB04KT 10SM CLR 12/00 A2978 RMK AO2 SLP085 T01170000 (SCF)","FM-15","7",,,,,,,,,,,,,,,,,,,,,,,,,,,,"2006-06-01"
"70273026451","2020-05-14T08:16:00","FM-16","7",,"SE","1.7","mi","TEMP, PRECIP, SNOW","131",,"MMTS, SRG, SNOWBOARD, SNOWSTAKE","61.1561","-149.9847","ANCHORAGE FORECAST OFFICE, AK",,,,,,,,,,,,,,,,,,,,,,,,,,,"29.78","33","53",,,,,"47",,"FEW:02 130 FEW:02 180","29.64","10.00","44","130",,"3",,,,,,,,,,,,,,,,,,,,,,,,,,,,,,,,,,,,,"MET09905/14/20 08:16:02 SPECI PANC 141716Z 13003KT 10SM FEW130 FEW180 12/01 A2978 RMK AO2 T01170006 (SCF)","FM-16","7",,,,,,,,,,,,,,,,,,,,,,,,,,,,"2006-06-01"
"70273026451","2020-05-14T08:53:00","FM-15","7",,"SE","1.7","mi","TEMP, PRECIP, SNOW","131",,"MMTS, SRG, SNOWBOARD, SNOWSTAKE","61.1561","-149.9847","ANCHORAGE FORECAST OFFICE, AK",,,,,,,,,,,,,,,,,,,,,,,,,,,"29.79","33","54","0.00",,"-0.02","1","45","29.79","FEW:02 130 FEW:02 180","29.65","10.00","45","000",,"0",,,,,,,,,,,,,,,,,,,,,,,,,,,,,,,,,,,,,"MET12405/14/20 08:53:02 METAR PANC 141753Z 00000KT 10SM FEW130 FEW180 12/01 A2979 RMK AO2 SLP087 T01220006 10122 20033 51006 (SCF)","FM-15","7",,,,,,,,,,,,,,,,,,,,,,,,,,,,"2006-06-01"
"70273026451","2020-05-14T09:00:00","FM-12","4",,"SE","1.7","mi","TEMP, PRECIP, SNOW","131",,"MMTS, SRG, SNOWBOARD, SNOWSTAKE","61.1561","-149.9847","ANCHORAGE FORECAST OFFICE, AK",,,,,,,,,,,,,,,,,,,,,,,,,,,,"33","54",,,"-0.02","1","45","29.79",,"29.62","9.94","45","000",,"0",,,,,,,,,,,,,,,,,,,,,,,,,,,,,,,,,,,,,"SYN08070273 32966 20000 10122 20006 30030 40087 51006 91753 333 10122 20033 555 91418=","FM-12","4",,,,,,,,,,,,,,,,,,,,,,,,,,,,"2006-06-01"
"70273026451","2020-05-14T09:53:00","FM-15","7",,"SE","1.7","mi","TEMP, PRECIP, SNOW","131",,"MMTS, SRG, SNOWBOARD, SNOWSTAKE","61.1561","-149.9847","ANCHORAGE FORECAST OFFICE, AK",,,,,,,,,,,,,,,,,,,,,,,,,,,"29.80","36","52","0.00",,,,"55","29.80","SCT:04 130 SCT:04 180","29.66","10.00","45","310",,"8",,,,,,,,,,,,,,,,,,,,,,,,,,,,,,,,,,,,,"MET10805/14/20 09:53:02 METAR PANC 141853Z 31007KT 10SM SCT130 SCT180 11/02 A2980 RMK AO2 SLP090 T01110022 $ (SCF)","FM-15","7",,,,,,,,,,,,,,,,,,,,,,,,,,,,"2006-06-01"
"70273026451","2020-05-14T10:53:00","FM-15","7",,"SE","1.7","mi","TEMP, PRECIP, SNOW","131",,"MMTS, SRG, SNOWBOARD, SNOWSTAKE","61.1561","-149.9847","ANCHORAGE FORECAST OFFICE, AK",,,,,,,,,,,,,,,,,,,,,,,,,,,"29.80","33","53","0.00",,,,"47","29.80","SCT:04 110 SCT:04 180","29.66","10.00","44","320",,"5",,,,,,,,,,,,,,,,,,,,,,,,,,,,,,,,,,,,,"MET10805/14/20 10:53:02 METAR PANC 141953Z 32004KT 10SM SCT110 SCT180 12/01 A2980 RMK AO2 SLP091 T01170006 $ (SCF)","FM-15","7",,,,,,,,,,,,,,,,,,,,,,,,,,,,"2006-06-01"
"70273026451","2020-05-14T11:53:00","FM-15","7",,"SE","1.7","mi","TEMP, PRECIP, SNOW","131",,"MMTS, SRG, SNOWBOARD, SNOWSTAKE","61.1561","-149.9847","ANCHORAGE FORECAST OFFICE, AK",,,,,,,,,,,,,,,,,,,,,,,,,,,"29.81","34","54","0.00",,"-0.02","3","47","29.81","SCT:04 110 SCT:04 180","29.67","10.00","45","300",,"7",,,,,,,,,,,,,,,,,,,,,,,,,,,,,,,,,,,,,"MET12205/14/20 11:53:02 METAR PANC 142053Z 30006KT 10SM SCT110 SCT180 12/01 A2981 RMK AO2 SLP095 T01220011 53008 VISNO N $ (SCF)","FM-15","7",,,,,,,,,,,,,,,,,,,,,,,,,,,,"2006-06-01"
"70273026451","2020-05-14T12:53:00","FM-15","7",,"SE","1.7","mi","TEMP, PRECIP, SNOW","131",,"MMTS, SRG, SNOWBOARD, SNOWSTAKE","61.1561","-149.9847","ANCHORAGE FORECAST OFFICE, AK",,,,,,,,,,,,,,,,,,,,,,,,,,,"29.83","37","53","0.00",,,,"55","29.83","SCT:04 110 SCT:04 180","29.69","10.00","46","290",,"10",,,,,,,,,,,,,,,,,,,,,,,,,,,,,,,,,,,,,"MET11605/14/20 12:53:02 METAR PANC 142153Z 29009KT 10SM SCT110 SCT180 12/03 A2983 RMK AO2 SLP101 T01170028 VISNO N $ (SCF)","FM-15","7",,,,,,,,,,,,,,,,,,,,,,,,,,,,"2006-06-01"
"70273026451","2020-05-14T13:53:00","FM-15","7",,"SE","1.7","mi","TEMP, PRECIP, SNOW","131",,"MMTS, SRG, SNOWBOARD, SNOWSTAKE","61.1561","-149.9847","ANCHORAGE FORECAST OFFICE, AK",,,,,,,,,,,,,,,,,,,,,,,,,,,"29.83","34","56","0.00",,,,"44","29.83","SCT:04 100","29.69","10.00","46","260","23","13",,,,,,,,,,,,,,,,,,,,,,,,,,,,,,,,,,,,,"MET12005/14/20 13:53:02 METAR PANC 142253Z 26011G20KT 10SM SCT100 13/01 A2983 RMK AO2 SLP103 ACSL NE T01330011 VISNO N $ (SCF)","FM-15","7",,,,,,,,,,,,,,,,,,,,,,,,,,,,"2006-06-01"
"70273026451","2020-05-14T14:53:00","FM-15","7",,"SE","1.7","mi","TEMP, PRECIP, SNOW","131",,"MMTS, SRG, SNOWBOARD, SNOWSTAKE","61.1561","-149.9847","ANCHORAGE FORECAST OFFICE, AK",,,,,,,,,,,,,,,,,,,,,,,,,,,"29.85","34","54","0.00",,"-0.04","1","47","29.85","FEW:02 60 SCT:04 120 BKN:07 250","29.71","10.00","45","260",,"15",,,,,,,,,,,,,,,,,,,,,,,,,,,,,,,,,,,,,"MET13905/14/20 14:53:02 METAR PANC 142353Z 26013KT 10SM FEW060 SCT120 BKN250 12/01 A2985 RMK AO2 SLP108 VIRGA SW T01220011 10139 20106 51013 (JC)","FM-15","7",,,,,,,,,,,,,,,,,,,,,,,,,,,,"2006-06-01"
"70273026451","2020-05-14T15:00:00","FM-12","4",,"SE","1.7","mi","TEMP, PRECIP, SNOW","131",,"MMTS, SRG, SNOWBOARD, SNOWSTAKE","61.1561","-149.9847","ANCHORAGE FORECAST OFFICE, AK",,,,,,,,,,,,,,,,,,,,,,,,,,,,"34","54",,,"-0.04","1","47","29.85","57","29.68","9.94","45","260",,"15",,,,,,,,,,,,,,,,,,,,,,,,,,,,,,,,,,,,,"SYN08070273 32766 62613 10122 20011 30050 40108 51013 92353 333 10139 20039 555 91500=","FM-12","4",,,,,,,,,,,,,,,,,,,,,,,,,,,,"2006-06-01"
"70273026451","2020-05-14T15:53:00","FM-15","7",,"SE","1.7","mi","TEMP, PRECIP, SNOW","131",,"MMTS, SRG, SNOWBOARD, SNOWSTAKE","61.1561","-149.9847","ANCHORAGE FORECAST OFFICE, AK",,,,,,,,,,,,,,,,,,,,,,,,,,,"29.86","33","53","0.00",,,,"47","29.86","SCT:04 70 BKN:07 110 BKN:07 250","29.72","10.00","44","250",,"13",,,,,,,,,,,,,,,,,,,,,,,,,,,,,,,,,,,,,"MET11805/14/20 15:53:01 METAR PANC 150053Z 25011KT 10SM SCT070 BKN110 BKN250 12/01 A2986 RMK AO2 SLP112 VIRGA SW-W T01170006","FM-15","7",,,,,,,,,,,,,,,,,,,,,,,,,,,,"2006-06-01"
"70273026451","2020-05-14T16:53:00","FM-15","7",,"SE","1.7","mi","TEMP, PRECIP, SNOW","131",,"MMTS, SRG, SNOWBOARD, SNOWSTAKE","61.1561","-149.9847","ANCHORAGE FORECAST OFFICE, AK",,,,,,,,,,,,,,,,,,,,,,,,,,,"29.87","35","53","0.00",,,,"51","29.87","SCT:04 60 BKN:07 100 BKN:07 250","29.73","10.00","45","250",,"9",,,,,,,,,,,,,,,,,,,,,,,,,,,,,,,,,,,,,"MET11905/14/20 16:53:01 METAR PANC 150153Z 25008KT 10SM SCT060 BKN100 BKN250 12/02 A2987 RMK AO2 SLP114 VIRGA SW-NW T01170017","FM-15","7",,,,,,,,,,,,,,,,,,,,,,,,,,,,"2006-06-01"
"70273026451","2020-05-14T17:53:00","FM-15","7",,"SE","1.7","mi","TEMP, PRECIP, SNOW","131",,"MMTS, SRG, SNOWBOARD, SNOWSTAKE","61.1561","-149.9847","ANCHORAGE FORECAST OFFICE, AK",,,,,,,,,,,,,,,,,,,,,,,,,,,"29.87","34","53","0.00",,"-0.03","1","48","29.88","SCT:04 60 BKN:07 100 BKN:07 250","29.73","10.00","44","260","20","10",,,,,,,,,,,,,,,,,,,,,,,,,,,,,,,,,,,,,"MET12805/14/20 17:53:01 METAR PANC 150253Z 26009G17KT 10SM SCT060 BKN100 BKN250 12/01 A2987 RMK AO2 SLP117 VIRGA SW-NW T01170011 51009","FM-15","7",,,,,,,,,,,,,,,,,,,,,,,,,,,,"2006-06-01"
"70273026451","2020-05-14T18:53:00","FM-15","7",,"SE","1.7","mi","TEMP, PRECIP, SNOW","131",,"MMTS, SRG, SNOWBOARD, SNOWSTAKE","61.1561","-149.9847","ANCHORAGE FORECAST OFFICE, AK",,,,,,,,,,,,,,,,,,,,,,,,,,,"29.88","36","52","T","-RA:02 |RA |RA",,,"55","29.88","SCT:04 60 BKN:07 100 OVC:08 250","29.74","10.00","45","250",,"9",,,,,,,,,,,,,,,,,,,,,,,,,,,,,,,,,,,,,"MET12305/14/20 18:53:02 METAR PANC 150353Z 25008KT 10SM -RA SCT060 BKN100 OVC250 11/02 A2988 RMK AO2 RAB46 SLP118 P0000 T01110022","FM-15","7",,,,,,,,,,,,,,,,,,,,,,,,,,,,"2006-06-01"
"70273026451","2020-05-14T19:53:00","FM-15","7",,"SE","1.7","mi","TEMP, PRECIP, SNOW","131",,"MMTS, SRG, SNOWBOARD, SNOWSTAKE","61.1561","-149.9847","ANCHORAGE FORECAST OFFICE, AK",,,,,,,,,,,,,,,,,,,,,,,,,,,"29.89","32","53","T",,,,"45","29.89","SCT:04 70 BKN:07 110 OVC:08 250","29.75","10.00","44","210","21","6",,,,,,,,,,,,,,,,,,,,,,,,,,,,,,,,,,,,,"MET12205/14/20 19:53:02 METAR PANC 150453Z 21005G18KT 10SM SCT070 BKN110 OVC250 12/00 A2989 RMK AO2 RAE04 SLP121 P0000 T01170000","FM-15","7",,,,,,,,,,,,,,,,,,,,,,,,,,,,"2006-06-01"
"70273026451","2020-05-14T20:53:00","FM-15","7",,"SE","1.7","mi","TEMP, PRECIP, SNOW","131",,"MMTS, SRG, SNOWBOARD, SNOWSTAKE","61.1561","-149.9847","ANCHORAGE FORECAST OFFICE, AK",,,,,,,,,,,,,,,,,,,,,,,,,,,"29.89","33","52","0.00",,"-0.02","3","49","29.89","SCT:04 70 BKN:07 100 OVC:08 250","29.75","10.00","44","VRB",,"7",,,,,,,,,,,,,,,,,,,,,,,,,,,,,,,,,,,,,"MET13105/14/20 20:53:02 METAR PANC 150553Z VRB06KT 10SM SCT070 BKN100 OVC250 11/01 A2989 RMK AO2 SLP123 60000 T01110006 10128 20106 53006","FM-15","7",,,,,,,,,,,,,,,,,,,,,,,,,,,,"2006-06-01"
"70273026451","2020-05-14T21:00:00","FM-12","4",,"SE","1.7","mi","TEMP, PRECIP, SNOW","131",,"MMTS, SRG, SNOWBOARD, SNOWSTAKE","61.1561","-149.9847","ANCHORAGE FORECAST OFFICE, AK",,,,,,,,,,,,,,,,,,,,,,,,,,,,"33","52",,,"-0.02","3","49","29.89","74","29.72","9.94","44",,,"7",,,,,,,,,,,,,,,,,,,,,,,,,,,,,,,,,,,,,"SYN08670273 12866 8//06 10111 20006 30064 40123 53006 69901 90553 333 10128 20039 555 91506=","FM-12","4",,,,,,,,,,,,,,,,,,,,,,,,,,,,"2006-06-01"
"70273026451","2020-05-14T21:53:00","FM-15","7",,"SE","1.7","mi","TEMP, PRECIP, SNOW","131",,"MMTS, SRG, SNOWBOARD, SNOWSTAKE","61.1561","-149.9847","ANCHORAGE FORECAST OFFICE, AK",,,,,,,,,,,,,,,,,,,,,,,,,,,"29.90","34","50","0.00",,,,"54","29.91","SCT:04 70 BKN:07 95 BKN:07 250","29.76","10.00","43","060",,"3",,,,,,,,,,,,,,,,,,,,,,,,,,,,,,,,,,,,,"MET10705/14/20 21:53:02 METAR PANC 150653Z 06003KT 10SM SCT070 BKN095 BKN250 10/01 A2990 RMK AO2 SLP127 T01000011","FM-15","7",,,,,,,,,,,,,,,,,,,,,,,,,,,,"2006-06-01"
"70273026451","2020-05-14T22:53:00","FM-15","7",,"SE","1.7","mi","TEMP, PRECIP, SNOW","131",,"MMTS, SRG, SNOWBOARD, SNOWSTAKE","61.1561","-149.9847","ANCHORAGE FORECAST OFFICE, AK",,,,,,,,,,,,,,,,,,,,,,,,,,,"29.92","34","50","0.00",,,,"54","29.93","SCT:04 70 BKN:07 95 BKN:07 250","29.78","10.00","43","000",,"0",,,,,,,,,,,,,,,,,,,,,,,,,,,,,,,,,,,,,"MET10705/14/20 22:53:02 METAR PANC 150753Z 00000KT 10SM SCT070 BKN095 BKN250 10/01 A2992 RMK AO2 SLP134 T01000011","FM-15","7",,,,,,,,,,,,,,,,,,,,,,,,,,,,"2006-06-01"
"70273026451","2020-05-14T23:53:00","FM-15","7",,"SE","1.7","mi","TEMP, PRECIP, SNOW","131",,"MMTS, SRG, SNOWBOARD, SNOWSTAKE","61.1561","-149.9847","ANCHORAGE FORECAST OFFICE, AK",,,,,,,,,,,,,,,,,,,,,,,,,,,"29.93","36","50","T",,"-0.04","3","59","29.93","FEW:02 65 SCT:04 80 OVC:08 100","29.79","10.00","44","VRB",,"3",,,,,,,,,,,,,,,,,,,,,,,,,,,,,,,,,,,,,"MET14405/14/20 23:53:02 METAR PANC 150853Z VRB03KT 10SM FEW065 SCT080 OVC100 10/02 A2993 RMK AO2 RAB32E49 SLP137 P0000 60000 T01000022 401390033 53014","FM-15","7",,,,,,,,,,,,,,,,,,,,,,,,,,,,"2006-06-01"
"70273026451","2020-05-14T23:59:00","SOD  ","6",,"SE","1.7","mi","TEMP, PRECIP, SNOW","131",,"MMTS, SRG, SNOWBOARD, SNOWSTAKE","61.1561","-149.9847","ANCHORAGE FORECAST OFFICE, AK",,,,"34","48","55","29.83","29.67","43","6.9","0","0.6","17","57","38","270","27","T","0","0.0","260","18","RA",,,,,,,,,,,,,,,,,,,,,,,,,,,,,,,,,,,,,,,,,,,,,,,,,,,,,,,,"SOD72724 HR PRECIPITATION (IN):T     24 HR MAX TEMP (F):57 24 HR MAX TEMP TIME (LST):1422 24 HR MIN TEMP (F):38 24 HR MIN TEMP TIME (LST):0337 AVERAGE STATION PRESSURE:29.670 MINIMUM SEA LEVEL PRESSURE:29.71 TIME OF OCCURRENCE:0006 PEAK WIND SPEED (MPH):27  PEAK WIND DIR (DEG):270 PEAK WIND TIME (LST):1529  FASTEST 2MIN SPEED (MPH):18 FASTEST 2MIN DIR (DEG):260 FASTEST 2MIN TIME (LST):1529 AVERAGE WIND SPEED (MPH):6.9  24 HR AVG TEMP (F):48 HEATING DEGREE DAYS:17  COOLING DEGREE DAYS:0   LATEST DAY MAX TEMP (0700-1900 LST):57  LATEST NIGHT MIN TEMP(1900-0800 LST):38 HOURLY INCREMENTAL PRECIPITATION VALUES (IN):.00 0.00 0.00 0.00 0.00 0.00 0.00 0.00 0.00 0.00 0.00 0.00 0.00 0.00 0.00 0.00 0.00 0.00 T    T    0.00 0.00 0.00 T","SOD  ","6",,,,,,,,,,,,,,,,,,,,,,,,,"0413","2141",,"2006-06-01"
"70273026451","2020-05-15T00:53:00","FM-15","7",,"SE","1.7","mi","TEMP, PRECIP, SNOW","131",,"MMTS, SRG, SNOWBOARD, SNOWSTAKE","61.1561","-149.9847","ANCHORAGE FORECAST OFFICE, AK",,,,,,,,,,,,,,,,,,,,,,,,,,,"29.95","37","49","0.00",,,,"64","29.95","FEW:02 80 BKN:07 110","29.81","10.00","44","180",,"3",,,,,,,,,,,,,,,,,,,,,,,,,,,,,,,,,,,,,"MET10605/15/20 00:53:02 METAR PANC 150953Z 18003KT 10SM FEW080 BKN110 09/03 A2995 RMK AO2 SLP142 T00940028 (KTH)","FM-15","7",,,,,,,,,,,,,,,,,,,,,,,,,,,,"2006-06-01"
"70273026451","2020-05-15T01:53:00","FM-15","7",,"SE","1.7","mi","TEMP, PRECIP, SNOW","131",,"MMTS, SRG, SNOWBOARD, SNOWSTAKE","61.1561","-149.9847","ANCHORAGE FORECAST OFFICE, AK",,,,,,,,,,,,,,,,,,,,,,,,,,,"29.95","36","51","0.00",,,,"56","29.96","BKN:07 95 OVC:08 120","29.81","10.00","44","000",,"0",,,,,,,,,,,,,,,,,,,,,,,,,,,,,,,,,,,,,"MET10605/15/20 01:53:02 METAR PANC 151053Z 00000KT 10SM BKN095 OVC120 11/02 A2995 RMK AO2 SLP144 T01060022 (KTH)","FM-15","7",,,,,,,,,,,,,,,,,,,,,,,,,,,,"2006-06-01"
"70273026451","2020-05-15T02:53:00","FM-15","7",,"SE","1.7","mi","TEMP, PRECIP, SNOW","131",,"MMTS, SRG, SNOWBOARD, SNOWSTAKE","61.1561","-149.9847","ANCHORAGE FORECAST OFFICE, AK",,,,,,,,,,,,,,,,,,,,,,,,,,,"29.96","36","48","0.00",,"-0.02","1","63","29.96","SCT:04 110","29.82","10.00","43","000",,"0",,,,,,,,,,,,,,,,,,,,,,,,,,,,,,,,,,,,,"MET12305/15/20 02:53:02 METAR PANC 151153Z 00000KT 10SM SCT110 09/02 A2996 RMK AO2 SLP146 60000 T00890022 10111 20089 51008 (KTH)","FM-15","7",,,,,,,,,,,,,,,,,,,,,,,,,,,,"2006-06-01"
"70273026451","2020-05-15T03:00:00","FM-12","4",,"SE","1.7","mi","TEMP, PRECIP, SNOW","131",,"MMTS, SRG, SNOWBOARD, SNOWSTAKE","61.1561","-149.9847","ANCHORAGE FORECAST OFFICE, AK",,,,,,,,,,,,,,,,,,,,,,,,,,,,"36","48",,,"-0.02","1","63","29.96",,"29.79","9.94","43","000",,"0",,,,,,,,,,,,,,,,,,,,,,,,,,,,,,,,,,,,,"SYN08070273 12966 40000 10089 20022 30088 40146 51008 69901 91153 333 20089 555 91512=","FM-12","4",,,,,,,,,,,,,,,,,,,,,,,,,,,,"2006-06-01"
"70273026451","2020-05-15T03:53:00","FM-15","7",,"SE","1.7","mi","TEMP, PRECIP, SNOW","131",,"MMTS, SRG, SNOWBOARD, SNOWSTAKE","61.1561","-149.9847","ANCHORAGE FORECAST OFFICE, AK",,,,,,,,,,,,,,,,,,,,,,,,,,,"29.96","35","48","0.00",,,,"61","29.96","SCT:04 120","29.82","10.00","42","000",,"0",,,,,,,,,,,,,,,,,,,,,,,,,,,,,,,,,,,,,"MET09905/15/20 03:53:02 METAR PANC 151253Z 00000KT 10SM SCT120 09/02 A2996 RMK AO2 SLP145 T00890017 (KTH)","FM-15","7",,,,,,,,,,,,,,,,,,,,,,,,,,,,"2006-06-01"
"70273026451","2020-05-15T04:53:00","FM-15","7",,"SE","1.7","mi","TEMP, PRECIP, SNOW","131",,"MMTS, SRG, SNOWBOARD, SNOWSTAKE","61.1561","-149.9847","ANCHORAGE FORECAST OFFICE, AK",,,,,,,,,,,,,,,,,,,,,,,,,,,"29.97","36","45","0.00",,,,"71","29.97","FEW:02 130 FEW:02 200","29.83","10.00","41","000",,"0",,,,,,,,,,,,,,,,,,,,,,,,,,,,,,,,,,,,,"MET10605/15/20 04:53:02 METAR PANC 151353Z 00000KT 10SM FEW130 FEW200 07/02 A2997 RMK AO2 SLP150 T00720022 (KTH)","FM-15","7",,,,,,,,,,,,,,,,,,,,,,,,,,,,"2006-06-01"
"70273026451","2020-05-15T05:53:00","FM-15","7",,"SE","1.7","mi","TEMP, PRECIP, SNOW","131",,"MMTS, SRG, SNOWBOARD, SNOWSTAKE","61.1561","-149.9847","ANCHORAGE FORECAST OFFICE, AK",,,,,,,,,,,,,,,,,,,,,,,,,,,"29.98","36","48","0.00",,"-0.02","3","63","29.98","FEW:02 130 FEW:02 200","29.84","10.00","43","280",,"3",,,,,,,,,,,,,,,,,,,,,,,,,,,,,,,,,,,,,"MET11205/15/20 05:53:02 METAR PANC 151453Z 28003KT 10SM FEW130 FEW200 09/02 A2998 RMK AO2 SLP154 T00890022 53008 (SCF)","FM-15","7",,,,,,,,,,,,,,,,,,,,,,,,,,,,"2006-06-01"
"70273026451","2020-05-15T06:53:00","FM-15","7",,"SE","1.7","mi","TEMP, PRECIP, SNOW","131",,"MMTS, SRG, SNOWBOARD, SNOWSTAKE","61.1561","-149.9847","ANCHORAGE FORECAST OFFICE, AK",,,,,,,,,,,,,,,,,,,,,,,,,,,"29.99","36","52","0.00",,,,"55","29.99","FEW:02 130 FEW:02 200","29.85","10.00","45","000",,"0",,,,,,,,,,,,,,,,,,,,,,,,,,,,,,,,,,,,,"MET10605/15/20 06:53:02 METAR PANC 151553Z 00000KT 10SM FEW130 FEW200 11/02 A2999 RMK AO2 SLP157 T01110022 (SCF)","FM-15","7",,,,,,,,,,,,,,,,,,,,,,,,,,,,"2006-06-01"
"70273026451","2020-05-15T07:53:00","FM-15","7",,"SE","1.7","mi","TEMP, PRECIP, SNOW","131",,"MMTS, SRG, SNOWBOARD, SNOWSTAKE","61.1561","-149.9847","ANCHORAGE FORECAST OFFICE, AK",,,,,,,,,,,,,,,,,,,,,,,,,,,"29.99","36","53","0.00",,,,"52","29.99","FEW:02 130 FEW:02 200","29.85","10.00","45","VRB",,"3",,,,,,,,,,,,,,,,,,,,,,,,,,,,,,,,,,,,,"MET10605/15/20 07:53:02 METAR PANC 151653Z VRB03KT 10SM FEW130 FEW200 12/02 A2999 RMK AO2 SLP156 T01170022 (SCF)","FM-15","7",,,,,,,,,,,,,,,,,,,,,,,,,,,,"2006-06-01"
"70273026451","2020-05-15T08:53:00","FM-15","7",,"SE","1.7","mi","TEMP, PRECIP, SNOW","131",,"MMTS, SRG, SNOWBOARD, SNOWSTAKE","61.1561","-149.9847","ANCHORAGE FORECAST OFFICE, AK",,,,,,,,,,,,,,,,,,,,,,,,,,,"29.99","37","54","0.00",,"-0.01","1","53","29.99","FEW:02 130 FEW:02 200","29.85","10.00","46","280",,"7",,,,,,,,,,,,,,,,,,,,,,,,,,,,,,,,,,,,,"MET12405/15/20 08:53:02 METAR PANC 151753Z 28006KT 10SM FEW130 FEW200 12/03 A2999 RMK AO2 SLP157 T01220028 10122 20061 51003 (SCF)","FM-15","7",,,,,,,,,,,,,,,,,,,,,,,,,,,,"2006-06-01"
"70273026451","2020-05-15T09:00:00","FM-12","4",,"SE","1.7","mi","TEMP, PRECIP, SNOW","131",,"MMTS, SRG, SNOWBOARD, SNOWSTAKE","61.1561","-149.9847","ANCHORAGE FORECAST OFFICE, AK",,,,,,,,,,,,,,,,,,,,,,,,,,,,"37","54",,,"-0.01","1","53","29.99",,"29.82","9.94","46","280",,"7",,,,,,,,,,,,,,,,,,,,,,,,,,,,,,,,,,,,,"SYN08070273 32966 22806 10122 20028 30098 40157 51003 91753 333 10122 20061 555 91518=","FM-12","4",,,,,,,,,,,,,,,,,,,,,,,,,,,,"2006-06-01"
"70273026451","2020-05-15T09:53:00","FM-15","7",,"SE","1.7","mi","TEMP, PRECIP, SNOW","131",,"MMTS, SRG, SNOWBOARD, SNOWSTAKE","61.1561","-149.9847","ANCHORAGE FORECAST OFFICE, AK",,,,,,,,,,,,,,,,,,,,,,,,,,,"29.98","37","56","0.00",,,,"49","29.98","FEW:02 130 FEW:02 200","29.84","10.00","47","300",,"5",,,,,,,,,,,,,,,,,,,,,,,,,,,,,,,,,,,,,"MET10605/15/20 09:53:02 METAR PANC 151853Z 30004KT 10SM FEW130 FEW200 13/03 A2998 RMK AO2 SLP154 T01330028 (SCF)","FM-15","7",,,,,,,,,,,,,,,,,,,,,,,,,,,,"2006-06-01"
"70273026451","2020-05-15T10:53:00","FM-15","7",,"SE","1.7","mi","TEMP, PRECIP, SNOW","131",,"MMTS, SRG, SNOWBOARD, SNOWSTAKE","61.1561","-149.9847","ANCHORAGE FORECAST OFFICE, AK",,,,,,,,,,,,,,,,,,,,,,,,,,,"29.98","37","58","0.00",,,,"46","29.98","FEW:02 130 FEW:02 200","29.84","10.00","48","VRB",,"6",,,,,,,,,,,,,,,,,,,,,,,,,,,,,,,,,,,,,"MET10605/15/20 10:53:02 METAR PANC 151953Z VRB05KT 10SM FEW130 FEW200 14/03 A2998 RMK AO2 SLP152 T01440028 (SCF)","FM-15","7",,,,,,,,,,,,,,,,,,,,,,,,,,,,"2006-06-01"
"70273026451","2020-05-15T11:53:00","FM-15","7",,"SE","1.7","mi","TEMP, PRECIP, SNOW","131",,"MMTS, SRG, SNOWBOARD, SNOWSTAKE","61.1561","-149.9847","ANCHORAGE FORECAST OFFICE, AK",,,,,,,,,,,,,,,,,,,,,,,,,,,"29.97","37","59","0.00",,"+0.02","6","44","29.97","FEW:02 130 SCT:04 200","29.83","10.00","48","230",,"6",,,,,,,,,,,,,,,,,,,,,,,,,,,,,,,,,,,,,"MET11405/15/20 11:53:02 METAR PANC 152053Z 23005KT 10SM FEW130 SCT200 15/03 A2997 RMK AO2 SLP150 T01500028 56008 $ (SCF)","FM-15","7",,,,,,,,,,,,,,,,,,,,,,,,,,,,"2006-06-01"
"70273026451","2020-05-15T12:53:00","FM-15","7",,"SE","1.7","mi","TEMP, PRECIP, SNOW","131",,"MMTS, SRG, SNOWBOARD, SNOWSTAKE","61.1561","-149.9847","ANCHORAGE FORECAST OFFICE, AK",,,,,,,,,,,,,,,,,,,,,,,,,,,"29.96","37","61","0.00",,,,"41","29.96","FEW:02 130 SCT:04 200","29.82","10.00","49","210",,"10",,,,,,,,,,,,,,,,,,,,,,,,,,,,,,,,,,,,,"MET10805/15/20 12:53:02 METAR PANC 152153Z 21009KT 10SM FEW130 SCT200 16/03 A2996 RMK AO2 SLP146 T01610028 $ (SCF)","FM-15","7",,,,,,,,,,,,,,,,,,,,,,,,,,,,"2006-06-01"
"70273026451","2020-05-15T13:53:00","FM-15","7",,"SE","1.7","mi","TEMP, PRECIP, SNOW","131",,"MMTS, SRG, SNOWBOARD, SNOWSTAKE","61.1561","-149.9847","ANCHORAGE FORECAST OFFICE, AK",,,,,,,,,,,,,,,,,,,,,,,,,,,"29.94","37","62","0.00",,,,"40","29.94","FEW:02 120 SCT:04 200","29.80","10.00","50","160",,"9",,,,,,,,,,,,,,,,,,,,,,,,,,,,,,,,,,,,,"MET10805/15/20 13:53:02 METAR PANC 152253Z 16008KT 10SM FEW120 SCT200 17/03 A2994 RMK AO2 SLP140 T01670028 $ (SCF)","FM-15","7",,,,,,,,,,,,,,,,,,,,,,,,,,,,"2006-06-01"
"70273026451","2020-05-15T14:53:00","FM-15","7",,"SE","1.7","mi","TEMP, PRECIP, SNOW","131",,"MMTS, SRG, SNOWBOARD, SNOWSTAKE","61.1561","-149.9847","ANCHORAGE FORECAST OFFICE, AK",,,,,,,,,,,,,,,,,,,,,,,,,,,"29.93","37","62","0.00",,"+0.04","8","40","29.93","FEW:02 50 FEW:02 120 BKN:07 200","29.79","10.00","50","180",,"8",,,,,,,,,,,,,,,,,,,,,,,,,,,,,,,,,,,,,"MET13205/15/20 14:53:02 METAR PANC 152353Z 18007KT 10SM FEW050 FEW120 BKN200 17/03 A2993 RMK AO2 SLP136 T01670028 10172 20122 58014 $ (JC)","FM-15","7",,,,,,,,,,,,,,,,,,,,,,,,,,,,"2006-06-01"
"70273026451","2020-05-15T15:00:00","FM-12","4",,"SE","1.7","mi","TEMP, PRECIP, SNOW","131",,"MMTS, SRG, SNOWBOARD, SNOWSTAKE","61.1561","-149.9847","ANCHORAGE FORECAST OFFICE, AK",,,,,,,,,,,,,,,,,,,,,,,,,,,,"37","62",,,"+0.04","8","40","29.93","57","29.76","9.94","50","180",,"8",,,,,,,,,,,,,,,,,,,,,,,,,,,,,,,,,,,,,"SYN08070273 32766 61807 10167 20028 30077 40136 58014 92353 333 10172 20089 555 91600=","FM-12","4",,,,,,,,,,,,,,,,,,,,,,,,,,,,"2006-06-01"
"70273026451","2020-05-15T15:53:00","FM-15","7",,"SE","1.7","mi","TEMP, PRECIP, SNOW","131",,"MMTS, SRG, SNOWBOARD, SNOWSTAKE","61.1561","-149.9847","ANCHORAGE FORECAST OFFICE, AK",,,,,,,,,,,,,,,,,,,,,,,,,,,"29.92","37","64","0.00",,,,"37","29.92","FEW:02 50 FEW:02 120 BKN:07 200","29.78","10.00","51","200","17","8",,,,,,,,,,,,,,,,,,,,,,,,,,,,,,,,,,,,,"MET11205/15/20 15:53:01 METAR PANC 160053Z 20007G15KT 10SM FEW050 FEW120 BKN200 18/03 A2992 RMK AO2 SLP131 T01780028 $","FM-15","7",,,,,,,,,,,,,,,,,,,,,,,,,,,,"2006-06-01"
"70273026451","2020-05-15T16:53:00","FM-15","7",,"SE","1.7","mi","TEMP, PRECIP, SNOW","131",,"MMTS, SRG, SNOWBOARD, SNOWSTAKE","61.1561","-149.9847","ANCHORAGE FORECAST OFFICE, AK",,,,,,,,,,,,,,,,,,,,,,,,,,,"29.91","38","63","0.00",,,,"40","29.91","FEW:02 50 FEW:02 120 BKN:07 250","29.77","10.00","51","170",,"11",,,,,,,,,,,,,,,,,,,,,,,,,,,,,,,,,,,,,"MET10905/15/20 16:53:01 METAR PANC 160153Z 17010KT 10SM FEW050 FEW120 BKN250 17/03 A2991 RMK AO2 SLP129 T01720033 $","FM-15","7",,,,,,,,,,,,,,,,,,,,,,,,,,,,"2006-06-01"
"70273026451","2020-05-15T17:53:00","FM-15","7",,"SE","1.7","mi","TEMP, PRECIP, SNOW","131",,"MMTS, SRG, SNOWBOARD, SNOWSTAKE","61.1561","-149.9847","ANCHORAGE FORECAST OFFICE, AK",,,,,,,,,,,,,,,,,,,,,,,,,,,"29.90","37","63","0.00",,"+0.03","6","38","29.90","FEW:02 50 FEW:02 120 BKN:07 250","29.76","10.00","50","180",,"11",,,,,,,,,,,,,,,,,,,,,,,,,,,,,,,,,,,,,"MET11505/15/20 17:53:01 METAR PANC 160253Z 18010KT 10SM FEW050 FEW120 BKN250 17/03 A2990 RMK AO2 SLP126 T01720028 56010 $","FM-15","7",,,,,,,,,,,,,,,,,,,,,,,,,,,,"2006-06-01"
"70273026451","2020-05-15T18:53:00","FM-15","7",,"SE","1.7","mi","TEMP, PRECIP, SNOW","131",,"MMTS, SRG, SNOWBOARD, SNOWSTAKE","61.1561","-149.9847","ANCHORAGE FORECAST OFFICE, AK",,,,,,,,,,,,,,,,,,,,,,,,,,,"29.90","38","61","0.00",,,,"43","29.90","FEW:02 50 SCT:04 250","29.76","10.00","50","160",,"9",,,,,,,,,,,,,,,,,,,,,,,,,,,,,,,,,,,,,"MET10205/15/20 18:53:02 METAR PANC 160353Z 16008KT 10SM FEW050 SCT250 16/03 A2990 RMK AO2 SLP125 T01610033 $","FM-15","7",,,,,,,,,,,,,,,,,,,,,,,,,,,,"2006-06-01"
"70273026451","2020-05-15T19:53:00","FM-15","7",,"SE","1.7","mi","TEMP, PRECIP, SNOW","131",,"MMTS, SRG, SNOWBOARD, SNOWSTAKE","61.1561","-149.9847","ANCHORAGE FORECAST OFFICE, AK",,,,,,,,,,,,,,,,,,,,,,,,,,,"29.90","37","60","0.00",,,,"42","29.90","FEW:02 50 SCT:04 250","29.76","10.00","49","160",,"10",,,,,,,,,,,,,,,,,,,,,,,,,,,,,,,,,,,,,"MET10205/15/20 19:53:02 METAR PANC 160453Z 16009KT 10SM FEW050 SCT250 16/03 A2990 RMK AO2 SLP124 T01560028 $","FM-15","7",,,,,,,,,,,,,,,,,,,,,,,,,,,,"2006-06-01"
"70273026451","2020-05-15T20:53:00","FM-15","7",,"SE","1.7","mi","TEMP, PRECIP, SNOW","131",,"MMTS, SRG, SNOWBOARD, SNOWSTAKE","61.1561","-149.9847","ANCHORAGE FORECAST OFFICE, AK",,,,,,,,,,,,,,,,,,,,,,,,,,,"29.90","37","56","0.00",,"-0.00","3","49","29.90","FEW:02 50 SCT:04 250","29.76","10.00","47","170","20","11",,,,,,,,,,,,,,,,,,,,,,,,,,,,,,,,,,,,,"MET12305/15/20 20:53:02 METAR PANC 160553Z 17010G17KT 10SM FEW050 SCT250 13/03 A2990 RMK AO2 SLP126 T01330028 10178 20133 53000 $","FM-15","7",,,,,,,,,,,,,,,,,,,,,,,,,,,,"2006-06-01"
"70273026451","2020-05-15T21:00:00","FM-12","4",,"SE","1.7","mi","TEMP, PRECIP, SNOW","131",,"MMTS, SRG, SNOWBOARD, SNOWSTAKE","61.1561","-149.9847","ANCHORAGE FORECAST OFFICE, AK",,,,,,,,,,,,,,,,,,,,,,,,,,,,"37","56",,,,,"49","29.90","57","29.73","9.94","47","170",,"11",,,,,,,,,,,,,,,,,,,,,,,,,,,,,,,,,,,,,"SYN08670273 32766 41710 10133 20028 30067 40126 53000 90553 333 10178 20089 91017 555 91606=","FM-12","4",,,,,,,,,,,,,,,,,,,,,,,,,,,,"2006-06-01"
"70273026451","2020-05-15T21:53:00","FM-15","7",,"SE","1.7","mi","TEMP, PRECIP, SNOW","131",,"MMTS, SRG, SNOWBOARD, SNOWSTAKE","61.1561","-149.9847","ANCHORAGE FORECAST OFFICE, AK",,,,,,,,,,,,,,,,,,,,,,,,,,,"29.92","38","54","0.00",,,,"55","29.92","FEW:02 75 SCT:04 250","29.78","10.00","46","170","25","14",,,,,,,,,,,,,,,,,,,,,,,,,,,,,,,,,,,,,"MET10505/15/20 21:53:02 METAR PANC 160653Z 17012G22KT 10SM FEW075 SCT250 12/03 A2992 RMK AO2 SLP133 T01220033 $","FM-15","7",,,,,,,,,,,,,,,,,,,,,,,,,,,,"2006-06-01"
"70273026451","2020-05-15T22:53:00","FM-15","7",,"SE","1.7","mi","TEMP, PRECIP, SNOW","131",,"MMTS, SRG, SNOWBOARD, SNOWSTAKE","61.1561","-149.9847","ANCHORAGE FORECAST OFFICE, AK",,,,,,,,,,,,,,,,,,,,,,,,,,,"29.95","37","50","0.00",,,,"61","29.95","FEW:02 75 SCT:04 250","29.81","10.00","44","210",,"9",,,,,,,,,,,,,,,,,,,,,,,,,,,,,,,,,,,,,"MET10205/15/20 22:53:02 METAR PANC 160753Z 21008KT 10SM FEW075 SCT250 10/03 A2995 RMK AO2 SLP142 T01000028 $","FM-15","7",,,,,,,,,,,,,,,,,,,,,,,,,,,,"2006-06-01"
"70273026451","2020-05-15T23:53:00","FM-15","7",,"SE","1.7","mi","TEMP, PRECIP, SNOW","131",,"MMTS, SRG, SNOWBOARD, SNOWSTAKE","61.1561","-149.9847","ANCHORAGE FORECAST OFFICE, AK",,,,,,,,,,,,,,,,,,,,,,,,,,,"29.95","38","49","0.00",,"-0.05","1","66","29.96","FEW:02 75 SCT:04 250","29.81","10.00","44","160",,"10",,,,,,,,,,,,,,,,,,,,,,,,,,,,,,,,,,,,,"MET11805/15/20 23:53:02 METAR PANC 160853Z 16009KT 10SM FEW075 SCT250 09/03 A2995 RMK AO2 SLP144 T00940033 401780061 51017 $","FM-15","7",,,,,,,,,,,,,,,,,,,,,,,,,,,,"2006-06-01"
"70273026451","2020-05-15T23:59:00","SOD  ","6",,"SE","1.7","mi","TEMP, PRECIP, SNOW","131",,"MMTS, SRG, SNOWBOARD, SNOWSTAKE","61.1561","-149.9847","ANCHORAGE FORECAST OFFICE, AK",,,,"37","54","51","29.94","29.80","46","6.5","0","6.3","11","64","43","150","25","0.00","0","0.0","170","16",,,,,,,,,,,,,,,,,,,,,,,,,,,,,,,,,,,,,,,,,,,,,,,,,,,,,,,,,"SOD73024 HR PRECIPITATION (IN):0.00  24 HR MAX TEMP (F):64 24 HR MAX TEMP TIME (LST):1616 24 HR MIN TEMP (F):43 24 HR MIN TEMP TIME (LST):0504 AVERAGE STATION PRESSURE:29.800 MINIMUM SEA LEVEL PRESSURE:29.89 TIME OF OCCURRENCE:1944 PEAK WIND SPEED (MPH):25  PEAK WIND DIR (DEG):150 PEAK WIND TIME (LST):2146  FASTEST 2MIN SPEED (MPH):16 FASTEST 2MIN DIR (DEG):170 FASTEST 2MIN TIME (LST):2154 AVERAGE WIND SPEED (MPH):6.5  24 HR AVG TEMP (F):54 HEATING DEGREE DAYS:11  COOLING DEGREE DAYS:0   LATEST DAY MAX TEMP (0700-1900 LST):64  LATEST NIGHT MIN TEMP(1900-0800 LST):43 HOURLY INCREMENTAL PRECIPITATION VALUES (IN):.00 0.00 0.00 0.00 0.00 0.00 0.00 0.00 0.00 0.00 0.00 0.00 0.00 0.00 0.00 0.00 0.00 0.00 0.00 0.00 0.00 0.00 0.00 0.00","SOD  ","6",,,,,,,,,,,,,,,,,,,,,,,,,"0411","2144",,"2006-06-01"
"70273026451","2020-05-16T00:53:00","FM-15","7",,"SE","1.7","mi","TEMP, PRECIP, SNOW","131",,"MMTS, SRG, SNOWBOARD, SNOWSTAKE","61.1561","-149.9847","ANCHORAGE FORECAST OFFICE, AK",,,,,,,,,,,,,,,,,,,,,,,,,,,"29.96","36","47","0.00",,,,"66","29.96","CLR:00","29.82","10.00","42","190",,"11",,,,,,,,,,,,,,,,,,,,,,,,,,,,,,,,,,,,,"MET11605/16/20 00:53:02 METAR PANC 160953Z 19010KT 10SM CLR 08/02 A2996 RMK AO2 PK WND 17027/0926 SLP147 T00830022 $ (PEV)","FM-15","7",,,,,,,,,,,,,,,,,,,,,,,,,,,,"2006-06-01"
"70273026451","2020-05-16T01:53:00","FM-15","7",,"SE","1.7","mi","TEMP, PRECIP, SNOW","131",,"MMTS, SRG, SNOWBOARD, SNOWSTAKE","61.1561","-149.9847","ANCHORAGE FORECAST OFFICE, AK",,,,,,,,,,,,,,,,,,,,,,,,,,,"29.97","37","47","0.00",,,,"69","29.97","FEW:02 75 FEW:02 250","29.83","10.00","43","180",,"9",,,,,,,,,,,,,,,,,,,,,,,,,,,,,,,,,,,,,"MET10805/16/20 01:53:02 METAR PANC 161053Z 18008KT 10SM FEW075 FEW250 08/03 A2997 RMK AO2 SLP150 T00830028 $ (PEV)","FM-15","7",,,,,,,,,,,,,,,,,,,,,,,,,,,,"2006-06-01"
"70273026451","2020-05-16T02:53:00","FM-15","7",,"SE","1.7","mi","TEMP, PRECIP, SNOW","131",,"MMTS, SRG, SNOWBOARD, SNOWSTAKE","61.1561","-149.9847","ANCHORAGE FORECAST OFFICE, AK",,,,,,,,,,,,,,,,,,,,,,,,,,,"29.98","36","45","0.00",,"-0.03","1","71","29.98","FEW:02 75 SCT:04 250","29.84","10.00","41","180",,"8",,,,,,,,,,,,,,,,,,,,,,,,,,,,,,,,,,,,,"MET12605/16/20 02:53:02 METAR PANC 161153Z 18007KT 10SM FEW075 SCT250 07/02 A2998 RMK AO2 SLP153 T00720022 10133 20072 51009 $ (PEV)","FM-15","7",,,,,,,,,,,,,,,,,,,,,,,,,,,,"2006-06-01"
"70273026451","2020-05-16T03:00:00","FM-12","4",,"SE","1.7","mi","TEMP, PRECIP, SNOW","131",,"MMTS, SRG, SNOWBOARD, SNOWSTAKE","61.1561","-149.9847","ANCHORAGE FORECAST OFFICE, AK",,,,,,,,,,,,,,,,,,,,,,,,,,,,"36","45",,,"-0.03","1","71","29.98","74","29.81","9.94","41","180",,"8",,,,,,,,,,,,,,,,,,,,,,,,,,,,,,,,,,,,,"SYN07470273 32866 41807 10072 20022 30094 40153 51009 91153 333 20072 555 91612=","FM-12","4",,,,,,,,,,,,,,,,,,,,,,,,,,,,"2006-06-01"
"70273026451","2020-05-16T03:53:00","FM-15","7",,"SE","1.7","mi","TEMP, PRECIP, SNOW","131",,"MMTS, SRG, SNOWBOARD, SNOWSTAKE","61.1561","-149.9847","ANCHORAGE FORECAST OFFICE, AK",,,,,,,,,,,,,,,,,,,,,,,,,,,"29.98","37","45","0.00",,,,"74","29.98","FEW:02 120 SCT:04 250","29.84","7.00","41","190",,"6",,,,,,,,,,,,,,,,,,,,,,,,,,,,,,,,,,,,,"MET10705/16/20 03:53:02 METAR PANC 161253Z 19005KT 7SM FEW120 SCT250 07/03 A2998 RMK AO2 SLP154 T00720028 $ (PEV)","FM-15","7",,,,,,,,,,,,,,,,,,,,,,,,,,,,"2006-06-01"
"70273026451","2020-05-16T04:53:00","FM-15","7",,"SE","1.7","mi","TEMP, PRECIP, SNOW","131",,"MMTS, SRG, SNOWBOARD, SNOWSTAKE","61.1561","-149.9847","ANCHORAGE FORECAST OFFICE, AK",,,,,,,,,,,,,,,,,,,,,,,,,,,"29.99","37","44","0.00",,,,"76","29.99","FEW:02 120 SCT:04 250","29.85","10.00","41","160",,"5",,,,,,,,,,,,,,,,,,,,,,,,,,,,,,,,,,,,,"MET11505/16/20 04:53:02 METAR PANC 161353Z 16004KT 10SM FEW120 SCT250 07/03 A2999 RMK AO2 SLP157 ACSL W T00670028 $ (PEV)","FM-15","7",,,,,,,,,,,,,,,,,,,,,,,,,,,,"2006-06-01"
"70273026451","2020-05-16T05:53:00","FM-15","7",,"SE","1.7","mi","TEMP, PRECIP, SNOW","131",,"MMTS, SRG, SNOWBOARD, SNOWSTAKE","61.1561","-149.9847","ANCHORAGE FORECAST OFFICE, AK",,,,,,,,,,,,,,,,,,,,,,,,,,,"30.00","38","44","0.00",,"-0.02","3","79","30.00","FEW:02 90 FEW:02 120 SCT:04 250","29.86","10.00","41","000",,"0",,,,,,,,,,,,,,,,,,,,,,,,,,,,,,,,,,,,,"MET12105/16/20 05:53:02 METAR PANC 161453Z 00000KT 10SM FEW090 FEW120 SCT250 07/03 A3000 RMK AO2 SLP159 T00670033 53006 $ (PEV)","FM-15","7",,,,,,,,,,,,,,,,,,,,,,,,,,,,"2006-06-01"
"70273026451","2020-05-16T06:53:00","FM-15","7",,"SE","1.7","mi","TEMP, PRECIP, SNOW","131",,"MMTS, SRG, SNOWBOARD, SNOWSTAKE","61.1561","-149.9847","ANCHORAGE FORECAST OFFICE, AK",,,,,,,,,,,,,,,,,,,,,,,,,,,"30.00","39","48","0.00",,,,"71","30.00","FEW:02 40 SCT:04 90 BKN:07 120","29.86","10.00","44","000",,"0",,,,,,,,,,,,,,,,,,,,,,,,,,,,,,,,,,,,,"MET11505/16/20 06:53:02 METAR PANC 161553Z 00000KT 10SM FEW040 SCT090 BKN120 09/04 A3000 RMK AO2 SLP158 T00890039 $ (NLW)","FM-15","7",,,,,,,,,,,,,,,,,,,,,,,,,,,,"2006-06-01"
"70273026451","2020-05-16T07:53:00","FM-15","7",,"SE","1.7","mi","TEMP, PRECIP, SNOW","131",,"MMTS, SRG, SNOWBOARD, SNOWSTAKE","61.1561","-149.9847","ANCHORAGE FORECAST OFFICE, AK",,,,,,,,,,,,,,,,,,,,,,,,,,,"29.99","38","49","0.00",,,,"66","29.99","FEW:02 40 SCT:04 90 SCT:04 120","29.85","10.00","44","220",,"6",,,,,,,,,,,,,,,,,,,,,,,,,,,,,,,,,,,,,"MET11505/16/20 07:53:02 METAR PANC 161653Z 22005KT 10SM FEW040 SCT090 SCT120 09/03 A2999 RMK AO2 SLP157 T00940033 $ (NLW)","FM-15","7",,,,,,,,,,,,,,,,,,,,,,,,,,,,"2006-06-01"
"70273026451","2020-05-16T08:53:00","FM-15","7",,"SE","1.7","mi","TEMP, PRECIP, SNOW","131",,"MMTS, SRG, SNOWBOARD, SNOWSTAKE","61.1561","-149.9847","ANCHORAGE FORECAST OFFICE, AK",,,,,,,,,,,,,,,,,,,,,,,,,,,"29.99","37","51","0.00",,"+0.01","8","59","29.99","FEW:02 40 SCT:04 70 SCT:04 120","29.85","10.00","45","VRB",,"8",,,,,,,,,,,,,,,,,,,,,,,,,,,,,,,,,,,,,"MET13305/16/20 08:53:02 METAR PANC 161753Z 18007KT 10SM FEW040 SCT070 SCT120 11/03 A2999 RMK AO2 SLP155 T01060028 10106 20061 58004 $ (NLW)","FM-15","7",,,,,,,,,,,,,,,,,,,,,,,,,,,,"2006-06-01"
"70273026451","2020-05-16T09:00:00","FM-12","4",,"SE","1.7","mi","TEMP, PRECIP, SNOW","131",,"MMTS, SRG, SNOWBOARD, SNOWSTAKE","61.1561","-149.9847","ANCHORAGE FORECAST OFFICE, AK",,,,,,,,,,,,,,,,,,,,,,,,,,,,"37","51",,,"+0.01","8","59","29.99","41","29.82","9.94","45","180",,"8",,,,,,,,,,,,,,,,,,,,,,,,,,,,,,,,,,,,,"SYN08070273 32666 61807 10106 20028 30098 40155 58004 91753 333 10133 20061 555 91618=","FM-12","4",,,,,,,,,,,,,,,,,,,,,,,,,,,,"2006-06-01"
"70273026451","2020-05-16T09:53:00","FM-15","7",,"SE","1.7","mi","TEMP, PRECIP, SNOW","131",,"MMTS, SRG, SNOWBOARD, SNOWSTAKE","61.1561","-149.9847","ANCHORAGE FORECAST OFFICE, AK",,,,,,,,,,,,,,,,,,,,,,,,,,,"29.97","39","52","0.00",,,,"61","29.97","FEW:02 50 SCT:04 90 BKN:07 200","29.83","10.00","46","200",,"7",,,,,,,,,,,,,,,,,,,,,,,,,,,,,,,,,,,,,"MET11505/16/20 09:53:02 METAR PANC 161853Z 20006KT 10SM FEW050 SCT090 BKN200 11/04 A2997 RMK AO2 SLP150 T01110039 $ (NLW)","FM-15","7",,,,,,,,,,,,,,,,,,,,,,,,,,,,"2006-06-01"
"70273026451","2020-05-16T10:53:00","FM-15","7",,"SE","1.7","mi","TEMP, PRECIP, SNOW","131",,"MMTS, SRG, SNOWBOARD, SNOWSTAKE","61.1561","-149.9847","ANCHORAGE FORECAST OFFICE, AK",,,,,,,,,,,,,,,,,,,,,,,,,,,"29.96","40","56","0.00",,,,"55","29.96","FEW:02 50 BKN:07 180 BKN:07 250","29.82","10.00","48","290",,"6",,,,,,,,,,,,,,,,,,,,,,,,,,,,,,,,,,,,,"MET11505/16/20 10:53:02 METAR PANC 161953Z 29005KT 10SM FEW050 BKN180 BKN250 13/04 A2996 RMK AO2 SLP144 T01330044 $ (NLW)","FM-15","7",,,,,,,,,,,,,,,,,,,,,,,,,,,,"2006-06-01"
"70273026451","2020-05-16T11:53:00","FM-15","7",,"SE","1.7","mi","TEMP, PRECIP, SNOW","131",,"MMTS, SRG, SNOWBOARD, SNOWSTAKE","61.1561","-149.9847","ANCHORAGE FORECAST OFFICE, AK",,,,,,,,,,,,,,,,,,,,,,,,,,,"29.95","41","54","0.00",,"+0.04","6","62","29.95","BKN:07 180 BKN:07 250","29.81","10.00","48","300",,"8",,,,,,,,,,,,,,,,,,,,,,,,,,,,,,,,,,,,,"MET11405/16/20 11:53:02 METAR PANC 162053Z 30007KT 10SM BKN180 BKN250 12/05 A2995 RMK AO2 SLP143 T01220050 56012 $ (NLW)","FM-15","7",,,,,,,,,,,,,,,,,,,,,,,,,,,,"2006-06-01"
"70273026451","2020-05-16T12:53:00","FM-15","7",,"SE","1.7","mi","TEMP, PRECIP, SNOW","131",,"MMTS, SRG, SNOWBOARD, SNOWSTAKE","61.1561","-149.9847","ANCHORAGE FORECAST OFFICE, AK",,,,,,,,,,,,,,,,,,,,,,,,,,,"29.94","40","53","0.00",,,,"61","29.95","FEW:02 60 BKN:07 180 BKN:07 250","29.80","10.00","47","290",,"10",,,,,,,,,,,,,,,,,,,,,,,,,,,,,,,,,,,,,"MET11505/16/20 12:53:02 METAR PANC 162153Z 29009KT 10SM FEW060 BKN180 BKN250 12/04 A2994 RMK AO2 SLP141 T01170044 $ (NLW)","FM-15","7",,,,,,,,,,,,,,,,,,,,,,,,,,,,"2006-06-01"
"70273026451","2020-05-16T13:53:00","FM-15","7",,"SE","1.7","mi","TEMP, PRECIP, SNOW","131",,"MMTS, SRG, SNOWBOARD, SNOWSTAKE","61.1561","-149.9847","ANCHORAGE FORECAST OFFICE, AK",,,,,,,,,,,,,,,,,,,,,,,,,,,"29.93","40","53","0.00",,,,"61","29.93","FEW:02 60 BKN:07 180 BKN:07 250","29.79","10.00","47","290",,"13",,,,,,,,,,,,,,,,,,,,,,,,,,,,,,,,,,,,,"MET11505/16/20 13:53:02 METAR PANC 162253Z 29011KT 10SM FEW060 BKN180 BKN250 12/04 A2993 RMK AO2 SLP137 T01170044 $ (NLW)","FM-15","7",,,,,,,,,,,,,,,,,,,,,,,,,,,,"2006-06-01"
"70273026451","2020-05-16T14:53:00","FM-15","7",,"SE","1.7","mi","TEMP, PRECIP, SNOW","131",,"MMTS, SRG, SNOWBOARD, SNOWSTAKE","61.1561","-149.9847","ANCHORAGE FORECAST OFFICE, AK",,,,,,,,,,,,,,,,,,,,,,,,,,,"29.91","40","54","0.00",,"+0.04","8","59","29.92","FEW:02 60 BKN:07 180 BKN:07 250","29.77","10.00","47","260",,"9",,,,,,,,,,,,,,,,,,,,,,,,,,,,,,,,,,,,,"MET13305/16/20 14:53:02 METAR PANC 162353Z 26008KT 10SM FEW060 BKN180 BKN250 12/04 A2991 RMK AO2 SLP131 T01220044 10133 20106 58013 $ (HSW)","FM-15","7",,,,,,,,,,,,,,,,,,,,,,,,,,,,"2006-06-01"
"70273026451","2020-05-16T15:00:00","FM-12","4",,"SE","1.7","mi","TEMP, PRECIP, SNOW","131",,"MMTS, SRG, SNOWBOARD, SNOWSTAKE","61.1561","-149.9847","ANCHORAGE FORECAST OFFICE, AK",,,,,,,,,,,,,,,,,,,,,,,,,,,,"40","54",,,"+0.04","8","59","29.92","57","29.74","9.94","47","260",,"9",,,,,,,,,,,,,,,,,,,,,,,,,,,,,,,,,,,,,"SYN08070273 32766 62608 10122 20044 30071 40131 58013 92353 333 10133 20072 555 91700=","FM-12","4",,,,,,,,,,,,,,,,,,,,,,,,,,,,"2006-06-01"
"70273026451","2020-05-16T15:53:00","FM-15","7",,"SE","1.7","mi","TEMP, PRECIP, SNOW","131",,"MMTS, SRG, SNOWBOARD, SNOWSTAKE","61.1561","-149.9847","ANCHORAGE FORECAST OFFICE, AK",,,,,,,,,,,,,,,,,,,,,,,,,,,"29.90","40","57","0.00",,,,"53","29.90","FEW:02 60 BKN:07 180 BKN:07 250","29.76","10.00","49","270",,"7",,,,,,,,,,,,,,,,,,,,,,,,,,,,,,,,,,,,,"MET10905/16/20 15:53:01 METAR PANC 170053Z 27006KT 10SM FEW060 BKN180 BKN250 14/04 A2990 RMK AO2 SLP125 T01390044 $","FM-15","7",,,,,,,,,,,,,,,,,,,,,,,,,,,,"2006-06-01"
"70273026451","2020-05-16T16:53:00","FM-15","7",,"SE","1.7","mi","TEMP, PRECIP, SNOW","131",,"MMTS, SRG, SNOWBOARD, SNOWSTAKE","61.1561","-149.9847","ANCHORAGE FORECAST OFFICE, AK",,,,,,,,,,,,,,,,,,,,,,,,,,,"29.88","40","55","0.00",,,,"57","29.88","FEW:02 60 BKN:07 180 BKN:07 250","29.74","10.00","48","300",,"7",,,,,,,,,,,,,,,,,,,,,,,,,,,,,,,,,,,,,"MET10905/16/20 16:53:01 METAR PANC 170153Z 30006KT 10SM FEW060 BKN180 BKN250 13/04 A2988 RMK AO2 SLP119 T01280044 $","FM-15","7",,,,,,,,,,,,,,,,,,,,,,,,,,,,"2006-06-01"
"70273026451","2020-05-16T17:53:00","FM-15","7",,"SE","1.7","mi","TEMP, PRECIP, SNOW","131",,"MMTS, SRG, SNOWBOARD, SNOWSTAKE","61.1561","-149.9847","ANCHORAGE FORECAST OFFICE, AK",,,,,,,,,,,,,,,,,,,,,,,,,,,"29.87","41","53","0.00",,"+0.05","6","64","29.87","FEW:02 60 BKN:07 160 BKN:07 220","29.73","10.00","47","330",,"6",,,,,,,,,,,,,,,,,,,,,,,,,,,,,,,,,,,,,"MET11505/16/20 17:53:01 METAR PANC 170253Z 33005KT 10SM FEW060 BKN160 BKN220 12/05 A2987 RMK AO2 SLP115 T01170050 56016 $","FM-15","7",,,,,,,,,,,,,,,,,,,,,,,,,,,,"2006-06-01"
"70273026451","2020-05-16T18:53:00","FM-15","7",,"SE","1.7","mi","TEMP, PRECIP, SNOW","131",,"MMTS, SRG, SNOWBOARD, SNOWSTAKE","61.1561","-149.9847","ANCHORAGE FORECAST OFFICE, AK",,,,,,,,,,,,,,,,,,,,,,,,,,,"29.86","40","51","0.00",,,,"66","29.87","SCT:04 55 BKN:07 160 BKN:07 220","29.72","10.00","46","320",,"3",,,,,,,,,,,,,,,,,,,,,,,,,,,,,,,,,,,,,"MET10905/16/20 18:53:02 METAR PANC 170353Z 32003KT 10SM SCT055 BKN160 BKN220 11/04 A2986 RMK AO2 SLP114 T01060044 $","FM-15","7",,,,,,,,,,,,,,,,,,,,,,,,,,,,"2006-06-01"
"70273026451","2020-05-16T19:53:00","FM-15","7",,"SE","1.7","mi","TEMP, PRECIP, SNOW","131",,"MMTS, SRG, SNOWBOARD, SNOWSTAKE","61.1561","-149.9847","ANCHORAGE FORECAST OFFICE, AK",,,,,,,,,,,,,,,,,,,,,,,,,,,"29.86","40","52","0.00",,,,"64","29.86","FEW:02 70 BKN:07 110 OVC:08 200","29.72","10.00","46","000",,"0",,,,,,,,,,,,,,,,,,,,,,,,,,,,,,,,,,,,,"MET10905/16/20 19:53:02 METAR PANC 170453Z 00000KT 10SM FEW070 BKN110 OVC200 11/04 A2986 RMK AO2 SLP111 T01110044 $","FM-15","7",,,,,,,,,,,,,,,,,,,,,,,,,,,,"2006-06-01"
"70273026451","2020-05-16T20:53:00","FM-15","7",,"SE","1.7","mi","TEMP, PRECIP, SNOW","131",,"MMTS, SRG, SNOWBOARD, SNOWSTAKE","61.1561","-149.9847","ANCHORAGE FORECAST OFFICE, AK",,,,,,,,,,,,,,,,,,,,,,,,,,,"29.85","39","49","0.00",,"+0.01","6","69","29.85","FEW:02 70 BKN:07 100 OVC:08 220","29.71","10.00","44","000",,"0",,,,,,,,,,,,,,,,,,,,,,,,,,,,,,,,,,,,,"MET12705/16/20 20:53:02 METAR PANC 170553Z 00000KT 10SM FEW070 BKN100 OVC220 09/04 A2985 RMK AO2 SLP110 T00940039 10139 20094 56005 $","FM-15","7",,,,,,,,,,,,,,,,,,,,,,,,,,,,"2006-06-01"
"70273026451","2020-05-16T21:00:00","FM-12","4",,"SE","1.7","mi","TEMP, PRECIP, SNOW","131",,"MMTS, SRG, SNOWBOARD, SNOWSTAKE","61.1561","-149.9847","ANCHORAGE FORECAST OFFICE, AK",,,,,,,,,,,,,,,,,,,,,,,,,,,,"39","49",,,"+0.01","6","69","29.85","74","29.68","9.94","44","000",,"0",,,,,,,,,,,,,,,,,,,,,,,,,,,,,,,,,,,,,"SYN08070273 32866 80000 10094 20039 30050 40110 56005 90553 333 10139 20072 555 91706=","FM-12","4",,,,,,,,,,,,,,,,,,,,,,,,,,,,"2006-06-01"
"70273026451","2020-05-16T21:53:00","FM-15","7",,"SE","1.7","mi","TEMP, PRECIP, SNOW","131",,"MMTS, SRG, SNOWBOARD, SNOWSTAKE","61.1561","-149.9847","ANCHORAGE FORECAST OFFICE, AK",,,,,,,,,,,,,,,,,,,,,,,,,,,"29.85","38","49","0.00",,,,"66","29.85","FEW:02 70 BKN:07 100 OVC:08 220","29.71","10.00","44","220",,"3",,,,,,,,,,,,,,,,,,,,,,,,,,,,,,,,,,,,,"MET10905/16/20 21:53:02 METAR PANC 170653Z 22003KT 10SM FEW070 BKN100 OVC220 09/03 A2985 RMK AO2 SLP108 T00940033 $","FM-15","7",,,,,,,,,,,,,,,,,,,,,,,,,,,,"2006-06-01"
"70273026451","2020-05-16T22:53:00","FM-15","7",,"SE","1.7","mi","TEMP, PRECIP, SNOW","131",,"MMTS, SRG, SNOWBOARD, SNOWSTAKE","61.1561","-149.9847","ANCHORAGE FORECAST OFFICE, AK",,,,,,,,,,,,,,,,,,,,,,,,,,,"29.85","40","48","0.00",,,,"74","29.85","FEW:02 60 SCT:04 85 BKN:07 100","29.71","10.00","44","210",,"3",,,,,,,,,,,,,,,,,,,,,,,,,,,,,,,,,,,,,"MET10905/16/20 22:53:02 METAR PANC 170753Z 21003KT 10SM FEW060 SCT085 BKN100 09/04 A2985 RMK AO2 SLP108 T00890044 $","FM-15","7",,,,,,,,,,,,,,,,,,,,,,,,,,,,"2006-06-01"
"70273026451","2020-05-16T23:53:00","FM-15","7",,"SE","1.7","mi","TEMP, PRECIP, SNOW","131",,"MMTS, SRG, SNOWBOARD, SNOWSTAKE","61.1561","-149.9847","ANCHORAGE FORECAST OFFICE, AK",,,,,,,,,,,,,,,,,,,,,,,,,,,"29.85","40","48","0.00",,"-0.00","3","74","29.85","FEW:02 60 SCT:04 85 BKN:07 100","29.71","10.00","44","230",,"6",,,,,,,,,,,,,,,,,,,,,,,,,,,,,,,,,,,,,"MET12505/16/20 23:53:02 METAR PANC 170853Z 23005KT 10SM FEW060 SCT085 BKN100 09/04 A2985 RMK AO2 SLP110 T00890044 401390061 53000 $","FM-15","7",,,,,,,,,,,,,,,,,,,,,,,,,,,,"2006-06-01"
"70273026451","2020-05-16T23:59:00","SOD  ","6",,"SE","1.7","mi","TEMP, PRECIP, SNOW","131",,"MMTS, SRG, SNOWBOARD, SNOWSTAKE","61.1561","-149.9847","ANCHORAGE FORECAST OFFICE, AK",,,,"39","50","66","29.93","29.78","45","5.9","0","2.0","15","57","43","170","31","0.00","0","0.0","290","14",,,,,,,,,,,,,,,,,,,,,,,,,,,,,,,,,,,,,,,,,,,,,,,,,,,,,,,,,"SOD73024 HR PRECIPITATION (IN):0.00  24 HR MAX TEMP (F):57 24 HR MAX TEMP TIME (LST):1553 24 HR MIN TEMP (F):43 24 HR MIN TEMP TIME (LST):0549 AVERAGE STATION PRESSURE:29.785 MINIMUM SEA LEVEL PRESSURE:29.85 TIME OF OCCURRENCE:2350 PEAK WIND SPEED (MPH):31  PEAK WIND DIR (DEG):170 PEAK WIND TIME (LST):0026  FASTEST 2MIN SPEED (MPH):14 FASTEST 2MIN DIR (DEG):290 FASTEST 2MIN TIME (LST):1337 AVERAGE WIND SPEED (MPH):5.9  24 HR AVG TEMP (F):50 HEATING DEGREE DAYS:15  COOLING DEGREE DAYS:0   LATEST DAY MAX TEMP (0700-1900 LST):57  LATEST NIGHT MIN TEMP(1900-0800 LST):43 HOURLY INCREMENTAL PRECIPITATION VALUES (IN):.00 0.00 0.00 0.00 0.00 0.00 0.00 0.00 0.00 0.00 0.00 0.00 0.00 0.00 0.00 0.00 0.00 0.00 0.00 0.00 0.00 0.00 0.00 0.00","SOD  ","6",,,,,,,,,,,,,,,,,,,,,,,,,"0408","2146",,"2006-06-01"
